Title,Address,Phone,country_code,Website,Emails
"The Cheap Restaurant, lakeside, pokhara, Street no 22","6XC5+52C, पोखरा 33700",,NP,,null
Utopia Garden & Snacks Bar,पोखरा 33700,+9779846114408,977,,null
OR2K pokhara,"Baidam Rd 6, Hallanchowk, Saleways Mart, Baidam Rd, पोखरा 33700",+97761457114,977,,null
Local Sukuti Restaurant,"6X66+4PM, पोखरा 33700",+9779856021931,977,,null
Site Restaurant and Bar,"Lakeside Rd 06, पोखरा 33700",+9779745286631,977,https://apisaipalgroup.com,null
Fresh Elements Restaurant & Bar,"Middle Path St 16, पोखरा 33700",+97761455744,977,freshelementsrestaurant.com.np,null
Du Chhuk Ken - Best Restaurant,"Main Street, पोखरा 33700",+97761590779,977,,null
फ्रान्सेली क्रिपेरी,"Baidam Rd, पोखरा 33700",+9779806667705,977,,null
रोजमेरी किचेन पोखरा,"Baidam Rd 17, पोखरा 33700",+97761457250,977,,null
Roadhouse Cafe Pokhara,पोखरा 33700,+97761457421,977,https://instagram.com,null
Byanjan,"Lakeside Rd 15, पोखरा 33700",+97761456271,977,https://byanjan.com,contact@byanjan.com;info@byanjan.com
Restaurant Taste of Boudha and Sherpa Bar,"Baidam Rd, पोखरा 33700",+9779828215851,977,https://instagram.com,null
Mo2'S Delights Pokhara ( Now MoM's Café & Bar),"Street No. 13, पोखरा 33700",+9779848510793,977,https://facebook.com,null
Moondance Restaurant & Bar,"Lakeside Rd, पोखरा 33700",+97761451835,977,https://moondancepokhara.com,info.moondance@gmail.com
Indian restaurant,"Sarangkot St 18, पोखरा 33700",+9779708079954,977,,null
Relax Kitchen & Bar - Best Food,"6X74+JX4, Hallanchowk Lakeside, पोखरा 33700",+97761591229,977,https://relaxkitchennbar.com,null
Caffe Concerto,पोखरा 33700,+97761453529,977,https://caffeconcertonepal.com,null
Sarowar Sky Bar and Lounge,"Lakeside Rd 14, पोखरा 33700",+97761506302,977,https://hotelsarowar.com,reservations@hotelsarowar.comcopyright;reservations@hotelsarowar.comoffers
Open House Restro And Lounge bar,"Lakeside Rd, पोखरा 33700",+97761590999,977,https://openhousepokhara.com,null
Annapurna Café & Restaurant,"Annapurna Cable Car Bottom Station, Sedi - 18, पोखरा 33700",+9779765933444,977,,null
Spice Nepal Pure Vegetarian,"16, पोखरा 33700",+9779846593776,977,,null
LITTLE WINDOWS Veg & Vegan Pokhara Restaurant,"Lakeside Rd, पोखरा 33700",+9779829143109,977,,null
Daddys Kitchen Pokhara,"Mustang Chowk, Himali Tole Marg, पोखरा 33700",+97761457967,977,,null
Tripura Lounge Bar,"Lakeside Rd 15, पोखरा 33700",+9779804170253,977,,null
"Green Beach Pokhara, Restaurant and Bar (BBQ)","Green Beach Pokhara, Lakeside Rd 16, पोखरा 33700",+9779806518404,977,,null
Chilly Bar & Restaurant,पोखरा 33700,+97761463614,977,,null
Welcome Restaurant,"6X46+M72, पोखरा 33700",,NP,,null
Lake Spice Restaurant,"6X64+3V2, पोखरा 33700",+9779802808663,977,,null
बिजी बी क्याफे,"Baidam Rd, पोखरा 33700",+9779856028475,977,https://cafebusybee.com,null
Soul Origin Cafe and Restaurant,"Lakeside, पोखरा 33700",+97761590680,977,https://instagram.com,null
Flying Spirit Organic Kitchen,पोखरा 33700,+9779814189416,977,https://instagram.com,null
Awesome restaurant and Bar- Best Family Restaurant in Pokhara. Indian and Continental food available here,"6XF3+C3F, पोखरा 33700",+9779806718967,977,https://facebook.com,null
Asian Tea House,"Lakeside Rd, 06Pokhara 33700",+9779804108918,977,https://asianteahouse.com,null
पोखरा फुड ल्याण्ड,"Lakeside Rd 6, पोखरा 33700",+9779816618266,977,,null
Damaru Foodcourt and Viewpoint,पोखरा 33700,+9779846858344,977,,null
Raksi Sukuti: 24 Hours Food & Liquor Delivery In Pokhara,"Jarebar, पोखरा 33700",+9779802856990,977,https://raksisukuti.com,raksisukuti@gmail.com
Tara's Restaurant (Nepalese Vegetarian),"Street No. 13 6, पोखरा 33700",+9779813258296,977,,null
Natssul Korean Restaurant,"Lakeside Rd, पोखरा 33700",+9779806743394,977,https://natssul.com,natssul@live.com
Rice Garden Restaurant & Bar,"Lakeside Rd 6, पोखरा 33700",+97761590452,977,https://ricegardenrestaurant.com,webmaster@ricegardenrestaurant.com
Taste of Punjab ਪੰਜਾਬ ਦਾ ਸਵਾਦ,"5XWC+84P, Road, पोखरा 33700",+97761456678,977,,null
Silk Road restaurant and Bar,"Baidam Rd, पोखरा 33800",,NP,,null
Tagaaro Terrace restaurant,"21, पोखरा 33700",+9779826111439,977,,null
Sweet Memories Restaurant,"Hallanchowk, पोखरा 33700",+97761591527,977,,null
डुंगा रेष्ट्रो एण्ड लाउन्ज बार,"Lakeside Rd 14, पोखरा 33700",+97761453321,977,,null
Momotarou Japanese Restaurant Pokhara,"Lakeside Rd 6, पोखरा 33700",+9779849828107,977,,null
पोखरा थकाली भान्सा,"6X46+9H8, गौरी मार्ग, पोखरा 33700",+97761467379,977,,null
शेर्पा भान्सा (रेस्टुरेन्ट र बार),पोखरा 33700,+9779841313272,977,,null
Nepali Kitchen,"प्रगती मार्ग, पोखरा 33700",+9779846058289,977,,null
Puime Restaurant and Bar,"5XWF+7QJ, पोखरा 33700",+97761456050,977,https://facebook.com,null
Aqsa kitchen pokura,"6X7P+46F, नयाँ सडक, पोखरा 33700",+9779702481005,977,,null
The Grounds By Majestic Lakefront,"Lakeside Rd, पोखरा 33700",+97761591601,977,https://majesticlakefront.com,info@majesticlakefront.com
Trisara Pokhara,"6X64+5HM, पोखरा 33700",+97761461301,977,,null
Pandey Restaurant,"Lakeside Rd, पोखरा 33700",+9779846041161,977,,null
Pokhara Food Corner,"Lakeside Rd 6, पोखरा 33700",+9779816153686,977,,null
लान हुवा चिनिया रेष्टुरेन्ट,"6X46+G3Q, पोखरा 33700",+97761453797,977,,null
Kalsang Restaurant,"Lakeside Rd, पोखरा 33700",+9779802857888,977,https://kalsangrestaurants.com,kalsangfrdscorner@gmail.com
Krazy Gecko,"6XC3+G8F, Baidam Rd, पोखरा 33700",+9779841249081,977,https://m.facebook.com,null
Lazeez Halal Food,"Lakeside Rd 6, पोखरा 33700",+9779805849556,977,https://facebook.com,null
You and I,"Baidam Road, Lakeside Rd, पोखरा 33700",+9779860776276,977,https://facebook.com,null
You And Me Cafe and Restaurant,"Thado Pasal Path, पोखरा 33700",+9779846718096,977,,null
All In One Restaurant,"6X75+53H, पोखरा 33700",,NP,,null
360 SKY LOUNGE,"21, पोखरा 33700",+97761591025,977,,null
The Harbor,"6X46+9GP, पोखरा 33700",+97761463722,977,https://glacierboutique.com,glacierht@mail.com;info@glacierboutique.com
Nirvana Cafe,"Shanti path, पोखरा 33700",+9779806699904,977,,null
Methlang Food Home (best restaurant),"Methlang Marga, पोखरा 33700",+9779867663151,977,,null
New Fewa Restaurant,"Lakeside Rd, पोखरा 33700",+9779806667234,977,,null
SARDUBA TIBETAN RESTAURANT,पोखरा 33700,+9779820628284,977,https://instagram.com,null
CinderMint,"Lakeside Rd, पोखरा 33700",+9779802857555,977,,null
Anaki Restaurant & Bar,"Baidam Rd, पोखरा 33700",+9779856076324,977,https://anakibar.com.np,anakirestaurant@gmail.com
Japanese Restaurant FUJIYAMA,"Lakeside Rd 6, पोखरा 33700",+9779846520424,977,https://fujiyama.michikusa.jp,null
The Muglan Restaurant,"नयाँ सडक, पोखरा 33700",+97761553644,977,https://themuglan.com,null
Rest Point cafe and bar,"Bangladi, पोखरा 33700",+9779846546006,977,restpointcafebar.com,null
Irish Pub,"Lakeside Rd Lake, पोखरा 33700",+9779804140270,977,https://facebook.com,null
ए यम्:पि यम् क्याफे,"Shiva Mandir Marg, Lakeside Rd, पोखरा 33700",+97761456339,977,https://facebook.com,null
New Turkish & Nepali Kitchen Kabap House,"6X57+9H7, पोखरा 33700",+9779803926390,977,,null
आइ ब्लुज रेस्ट्रो,"Nayabazar Rd, पोखरा 33700",+97761544639,977,,null
PP Local Restaurant,पोखरा 33700,+97761463272,977,,null
Hot Sandwich Corner and Cheese Shop,"street no.15, pahari marga, Da Yatra St, पोखरा 33700",+9779846042078,977,,null
न्यू मारवाडी सेवा भोजनालय | Premium Veg Restaurant,"Medical line, पोखरा 33700",+97761574893,977,,null
ग्यालरी क्याफे,"Baidam Rd, पोखरा 33700",+9779826131016,977,,null
रोलिंग स्टोन्स रक बार,"6X64+MR3, Lakeside Rd, पोखरा 33700",+97761467496,977,,null
Tibetan Pema Restaurant,"28.207437,83.958582, पोखरा 33700",+97761451948,977,https://mydurable.com,null
पोताला तिबेतियन रेष्टुरेन्ट,पोखरा 33700,+9779817195609,977,,null
दुना टपरी भोजनालय,"6WGR+XVF, Panchase Marga, पोखरा 33700",+97761420063,977,,null
QUEEN FOREST RESTRO - BAR,"6X46+C76, Lakeside Rd, पोखरा 33700",+97761465357,977,,null
Gantavya Fast Food Restaurant,"16, पोखरा 33700",+9779805810064,977,,null
Khawa karpo restaurant,"The little Tibet cafe, पोखरा 00977",+9779826186629,977,,null
The Juicery Cafe,"opposite 3 sisters guesthouse Street No. 22A Bangladi, 33700",+9779823781787,977,https://thejuicerycafe.com,justacigar@hotmail.com;justacigar@hotmail.comjoin
Desi Tadka Multi Cuisine Restaurant,"6X67+V3G, पोखरा 33700",+97761454810,977,https://facebook.com,null
The Hills,"Gaira Pokhara, पोखरा 33700",+9779826138375,977,,null
Olive Tree Restaurant,"Street, पोखरा",+9779861780072,977,,null
पोखरा स्टेशन,"Nayabazar Rd 5, पोखरा 33700",+97761539072,977,,null
Cafe Camellia,पोखरा 33700,+9779814176338,977,,null
Paradiso Pokhara,"Lakeside Ward No.6, Baidam, पोखरा",+97761451675,977,https://paradisopokhara.com,paradisosportsbar@gmail.com
Cloud9 Restro & Lounge Bar,"Saleways Tower, 6TH Floor, पोखरा 33700",+97761577763,977,,null
Fish Tail Lodge by Annapurna,"Lakeside Rd, पोखरा 00977",+97761455071,977,https://fishtail-lodge.com,null
Sharma's unique Restaurant,"6XC5+22W, पोखरा 33700",+9779846257354,977,,null
Samrat Tandoori Restaurant,"Street 16 lakeside, पोखरा 33700",+97761457002,977,https://samrattandoori.com.np,dhakallokesh99@gmail.com
Nonion Italian & Mediterranean cuisine,पोखरा 33700,+9779846480985,977,,null
Lumuma,"Pokhara 6, Lakeside Rd Khahare, पोखरा 33700",+9779707300263,977,lumuma.com,null
कृष्णको भान्सा,"Happy Village , Khapaundi-2, पोखरा 33700",+9779814104754,977,,null
Lemon Grass Restaurant,"Baidam Rd, पोखरा 33700",+9779829162625,977,https://lemongrassrestaurant.com.np,null
Bodhi Suites Boutique Hotel and Spa,"6X55+QW8, Barahi Street, Lakeside Rd, पोखरा 33700",+97761457657,977,https://bodhisuites.com,info@bodhisuites.com
Cheli Thakali,पोखरा 33700,+9779856076099,977,,null
युरोप भोजनालय,"6XC5+43G, Baidam Rd, पोखरा 33700",,NP,,null
Nanglo Thakali Bhancha Ghar,"Dhikopatan 6 Pokhara lakeside, 33700",+9779806548216,977,,null
Himalayan Dorjee Restaurant,"Hallan chowk, पोखरा 33700",+97761590313,977,,null
Lamsal Bhansa Ghar,"Kharahe 6, Lakeside Street 19, पोखरा 33700",+9779803996352,977,,null
सेतो खरायो कफी,"Lakeside Rd, पोखरा 33700",+97761455455,977,https://facebook.com,null
कबाब राजा,पोखरा 33700,+9779817151501,977,,null
Fewa Thakali Bhanchha,"6X64+GWF, पोखरा 33700",+97761452478,977,,null
Fewa Lake Restaurant & Bar,"6X37+PX6, पोखरा 33700",+97761465395,977,,null
आँगन - चिप्लेढुंगा,"BBC Bhawan, Chiple Dhunga Rd, पोखरा 33700",+97761590153,977,,null
Annapurna Bhanchha,"Hallanchowk, पोखरा 33700",+9779841572162,977,,null
बुमर्याङ रेस्टुरेन्ट एण्ड बार,"6X54+WGC, Lakeside Rd, पोखरा 33700",+97761461412,977,,null
द क्युब कफी एण्ड क्याफे,"Pokhara Trade Mall, बुद्ध मार्ग, पोखरा 33700",+97761417004,977,,null
Chautari thakali Bhanchha Ghar,"Street No. 13, पोखरा 33700",+9779806715749,977,,null
द बोस बियर बार,"Lakeside Rd 6, पोखरा 33700",+9779856009999,977,,null
Pokhara Bhetghat Restaurant and Champaran Meat House,"6X6H+QQ4, पोखरा 33700",+9779845100003,977,,null
Pizmo Food Corner - Best Food in Pokhara,"Durbarthok Marga, पोखरा 33700",+9779805822126,977,https://bhoklayo.com,null
