Title,Address,Phone,country_code,Website,Emails
HR Consultants London,"8, 10 Boston Pl, London NW1 6QH, संयुक्त अधिराज्य",+447305236176,44,https://hrc-london.com,hr@hrpakistan.com
T&T Consultancy London Ltd,"Floor) 12, Unit 2 (Second, 14 Vallance Rd, London E1 5HR, संयुक्त अधिराज्य",+442072474500,44,https://ttlondon.co.uk,info@ttlondon.co.uk
Khan Associates London,"Unit-1.23, East London Works, 75 Whitechapel Rd, London E1 1DU, संयुक्त अधिराज्य",+442073770482,44,https://khanassociates.co.uk,info@khanassociates.co.uk
AHZ - UK University Representative,"2nd Floor, 16 St Clare St, London EC3N 1LQ, संयुक्त अधिराज्य",+442035181875,44,https://ahzassociates.com,info@ahzassociates.co.uk
BWBS Education Consultants,"Unit- 105, E1 Studios, 7 Whitechapel Rd, London E1 1DU, संयुक्त अधिराज्य",+442074767066,44,https://bwbsedu.com,admission@bwbsedu.com
MA Consultants,"3rd Floor, 91 Great Russell St, London WC1B 3PS, संयुक्त अधिराज्य",+442072473176,44,https://maconsultants.co.uk,maconsultants245@gmail.com
McKinsey & Company - London,"The Post Building, 100 Museum St, London WC1A 1PB, संयुक्त अधिराज्य",+442078398040,44,https://mckinsey.com,null
Study abroad Consultants Ltd.,"3 More London Pl, London SE1 2RE, संयुक्त अधिराज्य",+447547601575,44,https://studyabroadconsultants.co.uk,contact@studyabroadconsultants.co.uk
PA Consulting,"10 Bressenden Pl, London SW1E 5DN, संयुक्त अधिराज्य",+442077309000,44,https://paconsulting.com,null
Startup Consultant London,"One Canada Square, Floor 8, London E14 5AA, संयुक्त अधिराज्य",+442038686106,44,https://startup-consultant.uk,info@startup-consultant.uk
LIL Global Education Services London UK,"124 City Rd, London EC1V 2NX, संयुक्त अधिराज्य",+447596705011,44,https://lilglobal.co.uk,contact@lilglobal.co.uk
Boston Consulting Group,"80 Charlotte St., London W1T 4QS, संयुक्त अधिराज्य",+442077535353,44,https://bcg.com,null
R Consultancy Group,"1 Coldbath Square, London EC1R 5HL, संयुक्त अधिराज्य",+447956113330,44,https://rconsultancy.co.uk,info@rconsultancy.co.uk
DL Business Consultancy,"17 Chalton St, London NW1 1JD, संयुक्त अधिराज्य",+447930278135,44,https://lopezdario.com,info@lopezdario.com
B2E Consulting,"Second Floor, Winchester House, 19 Bedford Row, London WC1R 4EB, संयुक्त अधिराज्य",+442034752214,44,https://b2econsulting.com,null
T1 Digital Consultants UK,"124 City Rd, London EC1V 2NX, संयुक्त अधिराज्य",+442079936286,44,https://t1digitalconsultants.co.uk,office@t1digitalconsultants.co.uk
L.E.K. Consulting,"Nova South, 160 Victoria St, London SW1E 5LB, संयुक्त अधिराज्य",+442073897200,44,https://lek.com,null
London Business Training & Consulting,"One Lyric Square, London W6 0NB, संयुक्त अधिराज्य",+442031266755,44,https://lbtc.co.uk,contact@lbtc.co.uk
Ayming UK | London,"Ayming, 88 Leadenhall St, London EC3A 3BP, संयुक्त अधिराज्य",+442030585800,44,https://ayming.co.uk,null
Integration Consulting | London,"53-64, Chancery House, London WC2A 1QS, संयुक्त अधिराज्य",+442036060835,44,https://integrationconsulting.com,contact@integrationconsulting.com
London Health Consultants,"5th Floor, 167, 169 Great Portland St, London W1W 5PF, संयुक्त अधिराज्य",+442080506093,44,https://londonhealthconsultants.co.uk,null
London Data Consulting (LDC),"33 Nottingham Pl, London W1U 5LR, संयुक्त अधिराज्य",,GB,https://london-data-consulting.com,info@london-data-consulting.com
Steer,"14 - 21 Rushworth St, London SE1 0RB, संयुक्त अधिराज्य",+442079105000,44,https://steergroup.com,marketing@steergroup.com
Best education consultants for uk I Smart BeeE LTD,"119 Hamlets Way, London E3 4TY, संयुक्त अधिराज्य",+447446030707,44,https://smartbeee.co.uk,info@smartbeee.co.uk
MiX Consultancy Ltd,"34 Lime St, London EC3M 7AT, संयुक्त अधिराज्य",+442035444885,44,https://mixconsultancy.com,null
Imperial Consultants,"58 Prince's Gate, Exhibition Rd, London SW7 2PG, संयुक्त अधिराज्य",+442075946565,44,https://imperial-consultants.co.uk,null
consultancy,"128 City Rd, London EC1V 2NX, संयुक्त अधिराज्य",+447404053189,44,https://dolphinconsultancyltd.com,null
StudyIn,"3rd Floor, 211-213 Regent St., London W1B 4NF, संयुक्त अधिराज्य",+442072877040,44,https://gostudyin.com,tirana@studyin-uk.com
Slalom,"2nd Floor, East, 2 London Brg, London SE1 9RA, संयुक्त अधिराज्य",+442037711140,44,https://slalom.com,press@slalom.com
BIP UK,"51 Moorgate, London EC2R 6LL, संयुक्त अधिराज्य",+442031418400,44,https://bip-group.com,null
Be | Shaping the Future UK,"60 Moorgate, London EC2R 6EL, संयुक्त अधिराज्य",+442033707336,44,https://beshapingthefuture.co.uk,null
Blesatech Consultancy Services,"71-75 Shelton St, London WC2H 9JQ, संयुक्त अधिराज्य",+447893950992,44,https://blesatech.co.uk,info@blesatech.co.uk
Park City Consulting Ltd,"6TH Floor, 25 Farringdon St, London EC4A 4AB, संयुक्त अधिराज्य",+442037599244,44,https://parkcity.co.uk,consulting@parkcity.co.uk
esynergy - Technology Consultancy UK,"New London House, 6 London St, London EC3R 7LP, संयुक्त अधिराज्य",+442074444080,44,https://esynergy.co.uk,info@esynergy.co.uk
Alvarez & Marsal,"Park House, 16-18 Finsbury Circus, London EC2M 7EB, संयुक्त अधिराज्य",+442077155200,44,https://alvarezandmarsal.co.uk,null
Sable International London main office,"5th floor, 18 St Swithin's Ln, London EC4N 8AD, संयुक्त अधिराज्य",,GB,https://sableinternational.com,info@sableinternational.com
Top-Consultant,"18B Charles St, London W1J 5DU, संयुक्त अधिराज्य",+442076676880,44,https://top-consultant.com,hello@stoneandriver.com
JPA M&E Consultants London - MEP Consultancy,"85 Great Portland St, London W1W 7LT, संयुक्त अधिराज्य",+442035144276,44,https://jpameconsultants.co.uk,admin@jpameconsultants.co.uk
Kearney,"The Adelphi, 1-11 John Adam St, London WC2N 6HT, संयुक्त अधिराज्य",+442074688000,44,https://kearney.com,null
Kaya Legal Consultancy Ltd | UK Immigration Adviser | Turkish Lawyer,"17 Hanover Square, London W1S 1BN, संयुक्त अधिराज्य",+442030845534,44,https://kayalegal.co.uk,visa@kayalegal.co.uk
Times Consultant London Uk,"6 Victoria Rd, London N15 4PS, संयुक्त अधिराज्य",+447440300790,44,https://timesconsultant.uk,abuse@bodis.com
Culture Consultancy Ltd,"Epworth House, 25 City Rd, London EC1Y 1AA, संयुक्त अधिराज्य",+442080882228,44,https://cultureconsultancy.com,human@cultureconsultancy.com
Insight Consultancy UK Ltd,"6th Floor, 2 Kingdom St, London W2 6BD, संयुक्त अधिराज्य",+442035804220,44,https://insight-consultancy.com,null
The Consultancy Company (London),"35 Berkeley Square, London W1J 5BF, संयुक्त अधिराज्य",+443301332343,44,https://theconsultancycompany.uk,info@theconsultancy.company
Jamesford Management Consultants Ltd,"78 Pall Mall, London SW1Y 5ES, संयुक्त अधिराज्य",+442083485404,44,https://jamesford.co.uk,consult@jamesford.co.uk
Inner Circle Consulting,"3 9 Bell Yard Mews, London SE1 3UY, संयुक्त अधिराज्य",+447751733471,44,https://innercircleconsulting.co.uk,contact@innercircleconsulting.co.uk
Global Visa Agent | Fast Track Schengen Visa | Canada Visa | Us Visa,"New Broad Street House, Office 341, Spaces, 35 New Broad St, London EC2M 1NH, संयुक्त अधिराज्य",+442035001580,44,https://globalvisaagent.co.uk,sales@globalvisaagent.co.uk
Adam Smith International - London,"16 New Bridge St, London EC4V 6DB, संयुक्त अधिराज्य",+442077356660,44,https://adamsmithinternational.com,apply@adamsmithinternational1.recruitee.com
Consulting Point,"68-70 Queen Victoria St, London EC4N 4SJ, संयुक्त अधिराज्य",+442045707898,44,https://consultingpoint.com,georgina.halabi@consultingpoint.com
OC&C Strategy Consultants,"6 New St Square, London EC4A 3AT, संयुक्त अधिराज्य",+442070108000,44,https://occstrategy.com,null
LHH UK,"2 Harewood Pl, London W1S 1BX, संयुक्त अधिराज्य",+442030897121,44,https://lhh.com,null
Business Consultants London,"47 Arch St, Elephant and Castle, London SE1 6DT, संयुक्त अधिराज्य",+447507646328,44,,null
CIL Management Consultants,"30 King St, London EC2V 8EH, संयुक्त अधिराज्य",+442038292700,44,https://cil.com,careers@cil.com
London Consultancy 4 You,"5 Denmark St, London WC2H 8LP, संयुक्त अधिराज्य",,GB,https://londonconsultancy4you.co.uk,info@lc4u.co.uk
Thiago Crespo Immigration Consultancy,"House 1, 314 Chester, 3 Brixton Rd, London SW9 6DE, संयुक्त अधिराज्य",+447564217529,44,https://thiagocrespoconsultancy.com,ronimoreira@hotmail.com
The UK Care Consultants,"85 Great Portland St, London W1W 7LT, संयुक्त अधिराज्य",+442039210931,44,https://theukcareconsultants.co.uk,null
Virtusa UK Limited / Virtusa Consulting & Services Limited,"Level 8, 26 Finsbury Square, London EC2A 1DS, संयुक्त अधिराज्य",+442036517800,44,https://virtusa.com,null
SLR Consulting Ltd,"Summit House, 12 Red Lion Square, London WC1R 4HQ, संयुक्त अधिराज्य",+443300886631,44,https://slrconsulting.com,null
MIGSO-PCUBED London,"3-5 Crutched Friars, London EC3N 2HT, संयुक्त अधिराज्य",+442074620100,44,https://migso-pcubed.com,null
Roland Berger London,"Ground Floor, 55 Baker St, London W1U 8EW, संयुक्त अधिराज्य",+442030751100,44,https://rolandberger.com,christin.fruechtnicht@rolandberger.com
AM Consulting (London) Limited,"64 Knightsbridge, London SW1X 7JF, संयुक्त अधिराज्य",+447813322236,44,https://amconsulting.org.uk,null
North Highland,"10 Bloomsbury Way, London WC1A 2SL, संयुक्त अधिराज्य",+442070812544,44,https://northhighland.com,news@northhighland.com
Curzon Consulting,"12-14 Masons Ave, London EC2V 5BT, संयुक्त अधिराज्य",+441653628596,44,https://curzonconsulting.com,info@curzonconsulting.com
"Prescient Healthcare Group - London, UK","C, P House, 97-107 Uxbridge Rd, London W5 5TL, संयुक्त अधिराज्य",+442088327900,44,https://prescienthg.com,info@prescienthg.com
iae GLOBAL UK and Europe (London office),"4th Floor, Hamilton House, 13-18 Mabledon Pl, London WC1H 9BB, संयुक्त अधिराज्य",+442079530235,44,https://iaeuk.net,null
BTS,"1 Queen Caroline St, London W6 9YN, संयुक्त अधिराज्य",+442073684180,44,https://bts.com,data.privacy@bts.com
CG Consultancy UK Limited,"Warnford Court, Throgmorton St, London EC2N 2AT, संयुक्त अधिराज्य",+442034113946,44,https://cgconsultancy.com,null
Bain & Company,"Villiers House, 40 Strand, London WC2N 5RW, संयुक्त अधिराज्य",+442079696000,44,https://bain.com,null
Dufrain - The Data Company,"46 New Broad St, London EC2M 1JH, संयुक्त अधिराज्य",+441312977066,44,https://dufrain.co.uk,null
NDY,"11th Floor, 1 Angel Ct, London EC2R 7HJ, संयुक्त अधिराज्य",+442075539494,44,https://ndy.com,vancouver@ndy.com
UCL Consultants Ltd,"90 Tottenham Ct Rd, London W1T 4TJ, संयुक्त अधिराज्य",+442076799796,44,https://uclconsultants.com,null
The Change Management Group Ltd,"9 Masons Yard, London SW1Y 6BU, संयुक्त अधिराज्य",+442088199459,44,https://cmg-change.com,hello@cmg-change.com
Nous Group,"Level 2, 17 Bevis Marks, London EC3A 7LN, संयुक्त अधिराज्य",+442036872500,44,https://nousgroup.com,media@nousgroup.com
London Cost Consultancy Ltd,"Strand Palace Hotel, 372 Strand, London WC2R 0JJ, संयुक्त अधिराज्य",+442074974102,44,https://londoncost.co.uk,null
Management Consultants London,"1st floor, 85 Great Portland St, London W1W 7LT, संयुक्त अधिराज्य",+442033719616,44,,null
Westminster Business Consultants,"32-38 Wells Street, London W1T 3UW Wells St, London W1T 3UW, संयुक्त अधिराज्य",+447597785797,44,,null
Huron Consulting Group (UK),"One Pancras Square, The Gridiron Building N1C 4AG, संयुक्त अधिराज्य",+441480585490,44,https://huronconsultinggroup.com,null
Dale Carnegie London,"49, 65 Southampton Way, London SE5 7SW, संयुक्त अधिराज्य",+442073794323,44,https://dalecarnegie.co.uk,null
The Leachman Consultancy Limited,"27 Old Gloucester St, London WC1N 3AX, संयुक्त अधिराज्य",+442045427333,44,https://theleachmanconsultancy.co.uk,leachmanconsultancy@gmail.com
EDFORD CONSULTANTS,"71-75 Shelton St, London WC2H 9FD, संयुक्त अधिराज्य",+442076007070,44,https://edfordconsult.com,inquiries@edfordconsult.com
WEA Planning,"14 Windermere Rd, Archway, London N19 5SE, संयुक्त अधिराज्य",+442079932075,44,https://weaplanning.co.uk,queries@weaplanning.co.uk
Uniwide Formations,"3 Hornton Pl, London W8 4LZ, संयुक्त अधिराज्य",+442045010600,44,https://uniwide.co.uk,null
Advancy,"12 Charles II St, London SW1Y 4QU, संयुक्त अधिराज्य",+442039788500,44,https://advancy.com,null
PwC,"7 More London Pl, London SE1 2RT, संयुक्त अधिराज्य",+442075835000,44,https://pwc.co.uk,null
Sweco UK - London Office Eldon House via Wilson St. gated entrance),"Eldon House 2-3 Eldon Street Via, Wilson St, London EC2M 7LS, संयुक्त अधिराज्य",+442074227800,44,https://sweco.co.uk,neil.badley@sweco.co.uk
"Business Consultant - Business Plans, Pitch Decks and Financial Models","30 St Mary Axe, London EC3A 8EP, संयुक्त अधिराज्य",+447570000045,44,https://ons.consulting,null
Consulting Professionals,"52 Upper Street Business Design Centre Suite 226, London N1 0QH, संयुक्त अधिराज्य",+442077045800,44,https://consultingprofessionals.co.uk,info@consultingprofessionals.co.uk
Cognosis Consulting,"10 York Rd, London SE1 7ND, संयुक्त अधिराज्य",+442045467830,44,https://cognosis.co.uk,una.acton@cognosis.co.uk
EDUKRAFT CONSULTANCY,"197-213 Oxford St, London W1D 2LF, संयुक्त अधिराज्य",+441223782585,44,https://edukraft.co.uk,info@edukraft.co.uk
Life in the UK courses,"73 Oglander Rd, London SE15 4DD, संयुक्त अधिराज्य",+447746104551,44,https://lifeintheukcourses.co.uk,louise.clack@virginmedia.com
Blue Consulting London,"3rd Floor, 111 Buckingham Palace Rd, London SW1W 0SR, संयुक्त अधिराज्य",+442038076040,44,,null
Aura Consulting UK Ltd,"1 King William St, London EC4N 7BJ, संयुक्त अधिराज्य",+442031786048,44,https://aura-consulting.co.uk,null
GROUPA Ltd - Education Consultancy Uk,"18 St Cross St, London EC1N 8UN, संयुक्त अधिराज्य",+442081444676,44,,null
BRITISH EDUCATION CONSULTANTS,"35 Berkeley Square, London W1J 5BF, संयुक्त अधिराज्य",+442071129016,44,https://britisheducationconsultants.co.uk,info@britisheducationconsultants.co.uk
Plan A Consultants,"Second Floor, Harella House, 90-98 Goswell Rd., London EC1V 7DF, संयुक्त अधिराज्य",+442080650459,44,https://planaconsultants.com,info@planaconsultants.com
ICS Legal - Immigration Lawyers London,"Suite 11, City Business Centre, Canada Water, Lower Rd, London SE16 2XB, संयुक्त अधिराज्य",+442072373388,44,https://icslegal.com,info@icslegal.com
Austin Consultants,"Sustainable Workspaces Sustainable Workspaces, County Hall, Belvedere Rd, London SE1 7PB, संयुक्त अधिराज्य",+448007720795,44,https://austinconsultants.com,sales@austinconsultants.com
Yonder Consulting,"Northburgh House, 10 Northburgh St, London EC1V 0AT, संयुक्त अधिराज्य",+442072539900,44,https://yonderconsulting.com,hello@yonderconsulting.com
Challenge Consultancy,"83 89 Western Rd, London N22 6US, संयुक्त अधिराज्य",+442072723400,44,https://theewgroup.com,null
Core Consultants,"55 Old Broad St, London EC2M 1RX, संयुक्त अधिराज्य",+442037451725,44,https://coreconsultants.io,null
HR Consultant,"Sixth Floor, International House, London W1B 2QD, संयुक्त अधिराज्य",,GB,https://employmentlawuk.co.uk,null
UK Global Consultancy,"Bolton St, London W1J 8BD, संयुक्त अधिराज्य",+447584650499,44,https://ukglobals.com,null
Version 1 - Formerly Farsight Consulting,"Canterbury Court, 1-3 Kennington Park Rd, Brixton Rd, London SW9 6DE, संयुक्त अधिराज्य",+442070787523,44,https://farsightconsulting.co.uk,null
English Consulting Engineers Ltd,"145 Trentham St, London SW18 5DH, संयुक्त अधिराज्य",+447494549661,44,https://englishconsultingengineers.co.uk,info@englishconsultingengineers.co.uk
Eraslan Consultancy,"32-33 Upper St, London N1 0PN, संयुक्त अधिराज्य",+447387616065,44,https://eraslanconsultancy.co.uk,info@eraslanconsultancy.co.uk
Winvolved Consultancy Ltd,"The Clubhouse, 20 St Andrew St, London EC4A 3AG, संयुक्त अधिराज्य",+443332244822,44,https://winvolved.co.uk,team@winvolvedlegal.co.uk
"Queue Associates UK, Ltd. London United Kingdom","5 St John's Ln, London EC1M 4BH, संयुक्त अधिराज्य",+442075491606,44,https://queueassoc.co.uk,null
Cordless Consultants Ltd,"2 Queen Anne's Gate Buildings, Dartmouth St, London SW1H 9BP, संयुक्त अधिराज्य",+442072226092,44,https://cordless.co.uk,hello@cordless.co.uk
Protiviti London,"The Shard, 32 London Bridge St, London SE1 9SG, संयुक्त अधिराज्य",+442079308808,44,https://protiviti.com,null
Analysis Group,"1 Angel Ct, London EC2R 7HJ, संयुक्त अधिराज्य",+442034807900,44,https://analysisgroup.com,null
Efficio,"Kinnaird House, 1 Pall Mall E, London SW1Y 5AU, संयुक्त अधिराज्य",+442039084040,44,https://efficioconsulting.com,null
"MZA Consulting Engineers, Philpot Lane, London","4, 10 Philpot Ln, London EC3M 8AA, संयुक्त अधिराज्य",+442030960659,44,https://mzaconsultingengineers.co.uk,info@mzaconsult.co.uk
Best Practice Consulting (UK) LTD,"149 Park Rd, London N8 8JD, संयुक्त अधिराज्य",+447568588889,44,https://bestpracticeconsulting.co.uk,null
Accenture,"150 Minories, London EC3N 1LS, संयुक्त अधिराज्य",+442078444000,44,https://accenture.com,null
Upscale Consultants,"Edinburgh House, Workspace, 170 Kennington Ln, London SE11 5DP, संयुक्त अधिराज्य",+442088193479,44,https://weupscale.com,null
Alchemy London Market,"Lloyd's building, Gallery 8, Room 824, One Lime St, London EC3M 7HA, संयुक्त अधिराज्य",+442030868780,44,https://r10.global,info@alchemytechs.com
The Lorenz Consultancy,"13 Hanover Square, London W1S 1HN, संयुक्त अधिराज्य",+442076299898,44,https://lorenzconsultancy.com,info@lorenzconsultancy.com
Digital Consultancy London,"Ashley gardens, London SW1P 1PD, संयुक्त अधिराज्य",,GB,,null
UK Business Consulting Limited,"178 Seven Sisters Rd, Finsbury Park, London N7 7PX, संयुक्त अधिराज्य",+442081446301,44,https://ukbc.london,stamatiou@cmv.gr
Credera UK,"Bankside 2, 90-100 Southwark St, London SE1 0SW, संयुक्त अधिराज्य",+443330439000,44,https://credera.co.uk,null
Global Law UK Visas & Immigration Consultancy,"44 Southampton Buildings, London WC2A 1AP, संयुक्त अधिराज्य",+442075041306,44,https://global-law.co.uk,info@global-law.co.uk
IPEX Consulting Ltd,"222 Regent St., London W1B 5BD, संयुक्त अधिराज्य",+442036425893,44,https://ipexconsulting.com,null
