Title,Address,Phone,Country,Website,Email,mobile_number,whatsapp_number
Nirjara Beauty Salon : Best Beauty Parlour in Kathmandu,"Chunne Bhairab Marg, Kathmandu 44600",+9779851097472,NP,https://facebook.com,null,,
Ananeke Beauty Salon & Spa,"Krishna Sadan, 2nd Floor Shree, Chakku Bakku Galli, Kathmandu 44600",+97714794675,NP,https://ananekesalon.com,manager.ananeke@gmail.com,+97714794675,
Black Diamond Salon,"Sunrise Chowk Thapagaun, 44600",+9779811981291,NP,https://blackdiamondsalon.com,info@blackdiamondsalon.com,+9779707504263,
Spalon Health & Beauty Pvt. Ltd,"Dilliraman Marg, Kathmandu 44600",+97714513913,NP,https://spalonhealthbeauty.com.np,info@spalonhealthbeauty.com.np,+97714413913,
Bliss by Sakil Kunwar Durbar Marg,"Above MODENA & SEIKO shop, 2 Darbar Marg, Kathmandu 1",+97715339065,NP,,null,,
Plush Salon and Makeup Academy,"Tindhara, Kathmandu 44600",+9779808428150,NP,,null,,
Lavish Salon,"Narayanhiti Path, Kathmandu 44600",+97714542030,NP,,null,,
BLISS by Sakil Kunwar Chhaya Center,"3rd Floor Shop N0, Chhaya Center, 26 Bagawan Bahal Marg, Kathmandu 44600",+97715252016,NP,,null,,
Hair n Shanti Unisex salon,"Chhaya center, Kathmandu 44600",+97715252052,NP,https://hairnshantinepal.com,hairnshantiktm@gmail.com,+97715252052,
Glow To Glow - Best Beauty Academy in Kathmandu Nepal,"New Baneshwor, Kathmandu 44600",+9779851116142,NP,https://glowtoglow.com,null,,
Shahinoor Unisex Salon,Kathmandu 46000,+9779842748877,NP,https://shahinoorunisexsalon.com,null,+9779842748877,+9779842748877
Beauty & Co.,Kathmandu 44600,+9779818459500,NP,https://instagram.com,null,,
Akala Hair and beauty salon,"Samakhusi Marg, Kathmandu 44600",+9779860917399,NP,,null,,
Tilu Hair & Beauty Salon,"Sarkari Dhara, Mhepi Marg, Kathmandu 44600",+9779803224742,NP,https://bit.ly,null,,
G-Hair Box,"Ac Complex, 3rd Floor,AC complex, चाबहिल मार्ग, Kathmandu 44602",+97714561383,NP,,null,,
Bevel Unisex Salon - Best Salon In Kathmandu,Kathmandu 44600,+97715922281,NP,,null,,
Ananeke Beauty Salon,"Durbar Marg, Kathmandu 44600",+97714794675,NP,,null,,
"Beauty Shine Makeup Studio with Spa Gurjudhara, Kathmandu","Gurjudhara, Chandragiri, Kathmandu 44600",,NP,https://facebook.com,null,,
Hair n Shanti,"Teendhara Marg, Kathmandu 44600",+9779823320055,NP,https://hairnshantinepal.com,hairnshantiktm@gmail.com,+97715252052,
Asylum Hair Salon,"A-One Business Complex, Thamel Marg, Kathmandu 44600",+97714531450,NP,https://asylumhairsalon.com,null,,
Volume Salon & Academy KTM,"Bhagwati Temple, Sanogaucharan near, Kathmandu 44600",+9779826453321,NP,https://volumesalons.com.np,null,,
Yang beauty care,"Galkopakha Marg, Kathmandu 44600",+9779849209569,NP,,null,,
Mangpahang Unisex Salon (Mid-Baneswor),"Devkota Sadak, Kathmandu 44600",+9779708073356,NP,,null,,
Glow Beauty Studio,"Shop No. 301, Kathmandu Mall, Sundhara Marg, Kathmandu 44600, Nepal, 3rd Floor, C",+97715908425,NP,,null,,
Krish Hair and Beauty Salon,"44600 Kathmandu, Putali Sadak, Star Mall Ground Floor",+9779860293120,NP,,null,,
Posh Beauty Studio,Kathmandu 44600,+9779851023825,NP,,null,,
Elite Hair Artist Salon and Academy,Kathmandu 44600,+9779848067588,NP,,null,,
FEELING'S BEAUTY & TRAINING CENTRE,Kathmandu 44600,+9779843477274,NP,,null,,
Femina FLAUNT Studio Salon - Kathmandu,"Femina Flaunt Studio Salon, Nagpokhari Marg, Kathmandu 44600",+9779702640260,NP,https://feminaflaunt.com,feminaflauntsalon@gmail.com,+91207998360000,
7 Thirteen Unisex Hair Salon,Kathmandu 44600,+97715911552,NP,https://facebook.com,null,,
Shantaz Salon and International Academy,"Pipalbot, Pako Sadak, Kathmandu 44600",+97714917717,NP,,null,,
Shahinoor Unisex Salon Samakoshi,"Rehdon pool, Kathmandu 46000",+9779842748877,NP,,null,,
Veda Hair Salon,"Charkhal Rd, Kathmandu 44600",+97714521231,NP,,null,,
NOVA Beauty Salon & Academy,"13 Bafal Marg, Kathmandu 44600",+9779702131333,NP,,null,,
De'Lavish Beauty Centre,Kirtipur 44600,+9779808561602,NP,https://m.facebook.com,null,,
The Tiara Unisex Salon,"M7XJ+CF8, Ring Rd, Kathmandu 44600",+9779843222202,NP,,null,,
Beauty Parlor,"P873+4JC, Swayambhu Marg, Kathmandu 44600",+9779703580657,NP,,null,,
The Beauty Bar,"Sama Marga, Kathmandu 44600",+97714522551,NP,,null,,
Treasure Unisex Salon And Academy,Kathmandu 44600,+9779745699898,NP,,null,,
Habibs Hair & Beauty Salon,"2nd Floor Kasthamandap Bazaar, Teendhara Marg, Kathmandu 44605",+97714169061,NP,https://habibssalon.com,null,,
Hair n Shanti,"Eye Plex Mall, 1st Floor, Kathmandu 44600",+97714574661,NP,https://hairnshantinepal.com,hairnshantiktm@gmail.com,+97715252052,
Cma Creativity (The Hair Studio) Salon,"Bibhuti Marga, Kathmandu 44600",+9779821754536,NP,https://instagram.com,null,,
Ananeke Beauty Salon,"Tusal Marg, Kathmandu 44600",+97714582806,NP,,null,,
Aroma Makeup And Beauty Studio,"ATMA GYAN, Kathmandu 44600",+9779743954005,NP,https://facebook.com,null,,
Jawed Habib - Thamel,"Chhaya center, Kathmandu 44600",+9779705177159,NP,,null,,
J&J Unisex Salon,"P8P7+7QJ, Tokha 44600",+9779808891676,NP,,null,,
Monika Unisex Salon & Academy,Kathmandu 44600,+9779857075295,NP,,null,,
XCosmopolitan,"P87F+4JC, Kathmandu 44600",+9779851362553,NP,https://xcosmopolitan.com.np,null,,
Dolly's Unisex Beauty Salon,"बैंक ओफ काठमाडौँ को नजिकै, तीनधारा मार्ग, Kathmandu 44600",+9779801024106,NP,https://dollyscreation.com,mail@dollyscreation.com,+9779801024106,+97714445082
Neeldavid's,"Eyeplex Mall, Devkota Sadak, Kathmandu 44600",+9779841501768,NP,https://instagram.com,null,,
Eros Cuts,"P894+37F, Kathmandu 44600",+9779809777982,NP,https://eroscuts.com,null,,
Reflection Unisex,"Kathmandu Mall 3rd floor shop no. 301 D, Sundhara Marg, Kathmandu 44600",+9779816325424,NP,https://reflectionunisex.com,reflect@reflectionunisex.com,+NP20+9779816325424,+NP6600236234231005190
Serene Salon & SPA,"Hotel Yak & Yeti Lane, Durbar Marg, Kathmandu 44600",+97715322702,NP,https://serenewellnessnepal.com,null,,
J and J Beauty Academy,"Natyashwori Marg, Kathmandu 44600",+9779860134633,NP,https://jjbeautyhub.com,jjbeautyhub@gmail.com,+9779860103416,+9779860134633
SoDaana!,"Kesarmahal Rd, Kathmandu 44600",+9779818099939,NP,https://instagram.com,null,,
Peaches Wax Studio,"House no 130/4, Neel, Saraswatisthan Marg, Kathmandu 44600",+9779823855661,NP,,null,,
Reflections Beauty Salon,Kathmandu 44600,+9779851353700,NP,,null,,
Hira Salon,"Radha krishna complex, 3rd floor, Kathmandu 44600",+97714548377,NP,https://hirasalon.com,null,+9779851068377,
o2 Nails & Beauty Studio,"Chandra Vinayak Marg, Kathmandu 44600",+9779810020638,NP,,null,,
M Style Salon and Beauty Hub,"M8QJ+FVC, Kathmandu 44600",+9779851400005,NP,,null,,
Style Lounge Unisex Salon - Best Salon In Kathmandu Valley,"Pulchowk Rd, Lalitpur 44700",+97715902338,NP,,null,,
Hair & Shanti Unisex Salon Samakhusi,"2nd floor, city square mall, Kathmandu 44600",+9779704541146,NP,https://hairnshantinepal.com,hairnshantiktm@gmail.com,+97715252052,
K & S Beauty Centre,"कान्तिपथ रोड, Kathmandu 44600",+97715366095,NP,,null,,
Rising Beauty Salon & Training Center Tahachal,"Tahachal Marg, Kathmandu 44600",+9779841819129,NP,,null,,
Nirjara Beauty Salon & Academy Chabahil,"Centra Complex, Kathmandu 44600",+9779801138668,NP,https://facebook.com,null,,
Radiant Unisex Salon & Training Center,Kathmandu 44600,+9779851410393,NP,https://radiantunisexsalon.com,info@radiantunisexsalon.com,+97715911829,+9779866103257
LIMBUZ Unisex Salon,"Bhrikuti Chowk, Saraswatinagar Rd, Kathmandu 44600",+9779810099369,NP,,null,,
Veda Salon Lazimpat,"House No. 175, Narayan Gopal Sadak, Kathmandu 44600",+9779704528148,NP,,null,,
Sparadise Spa,"Gahana Pokhari Marg, Kathmandu 44600",+9779801021263,NP,,null,,
neeldavid,"Civil Mall, 1st floor, Kathmandu 44600",+9779851012061,NP,,null,,
Zoom Beauty Academy - Best Beauty Academy in Nepal,"P84G+P57 Shri Raj Bhawan, Shree Raj Bhawan, Tinkune Madan Bhandari Road, Kathmandu 44600",+9779802351564,NP,https://zoombeautyacademy.com,null,,
Rajesh Unisex Salon Hair & Skin Care,"Chowk Chagal Marg, Kathmandu 44620",+9779812737130,NP,https://facebook.com,null,,
MY Sangalo Luxury Studio,"Jagritinagar marg, Kathmandu 44600",+9779808429858,NP,https://instagram.com,null,,
Sodasi Salon & Spa Pvt. Ltd,Kathmandu 44600,+97715347161,NP,,null,,
New Creation Salon & Art Studio,"Opposite of Fresh KTM, 44600 Jhamsikhel Chowk, Lalitpur 44600",+97715426218,NP,,null,,
Jasmine Unisex Salon & Academy,"Tinchuli Chowk, Kathmandu 44600",+9779851321376,NP,,null,,
Toni & Guy Nepal - Hair Salon,"1 Durbar Mall, 3rd Floor Durbar Marg, Kathmandu 44600",+9779851088880,NP,https://toniandguy.com,hairmeetwardrobe@unileverconsumerlink.co.uk,,
Lavender Beauty Home,"Budhanilkantha-10, Aakashedha, काठमाडौँ 44600",+9779841443039,NP,,null,,
Lux Cure Beauty Salon & Spa,"Narayantar, Jorpati, Gokarneshwor, Kathmandu 44600",+9779841374973,NP,,null,,
Beauty home by Zulekha,"beside Tata motors, Kathmandu 44600",+9779706964567,NP,,null,,
Kathmandu hair and beauty studio,"Radhe Radhe Rd, Bhaktapur 44800",+9779763499950,NP,,null,,
Hair & Beauty by Sangita,"1905 restaurant and suites, Kathmandu 44600",+9779803972581,NP,https://hairsalonkathmandu.com,null,+9779803972581,
Hair n Shanti Maharajgunj,Kathmandu 44600,+9779704770765,NP,,null,,
Spark and Shine Nails,"Hotel Annapurna Arcade, Kathmandu",+9779851132433,NP,https://instagram.com,null,,
The Salon,"3 Maharajgunj Sadak, Kathmandu 44600",+9779826330696,NP,,null,,
Diamond Spa and Beauty Salon,"P8FC+896, Kathmandu 44600",+9779843866451,NP,https://facebook.com,null,,
Kesh The Unisex Salon,"Sinamangal Rd, Kathmandu 44600",+9779851348288,NP,https://keshtheunisexsalon.com.np,null,+9779851348288,+9779851348288
Doll Lashon - Beauty Studio & Academy,"Mercantile plaza, Durbar Marg, Kathmandu 44600",+9779823064417,NP,https://dolllashon.com,null,+97715920127,
Galz Beauty Parlour,"P836+868, नयाँ सडक, Kathmandu 44600",,NP,,null,,
Orane Unisex Salon & Makeup Studio,Kathmandu 44600,+9779766453842,NP,https://oraneunisexsalon.com.np,null,,
The Next Level Saloon,"| Opp to Everest Bank, Pulchowk Rd, Lalitpur 44600",+9779807917517,NP,,null,,
Bipin Hair Studio and Beauty Academy,"Rising mall, Teendhara Marg, Kathmandu 44600",+97714169004,NP,,null,,
Crown unisex salon,"Sukedhara, Sir Raj Bahadur Rd, Kathmandu 44600",+9779803435325,NP,https://instagram.com,null,,
New Raju Unisex Salon,"P865+JC4, Kathmandu 00977",+9779841535180,NP,https://instagram.com,null,,
Jas Beauty,"KL Tower, Kathmandu 44600",,NP,https://facebook.com,null,,
Rhubarb Salon of Hair Beauty Makeup & Academy,"GLOBAL IME BUILDING, Ratna Marg, +9774601637 44600",+9779801065880,NP,,null,,
RR The hair and beauty salon,"P8C5+79V, Naya Bazaar Marg, Kathmandu 44600",+9779826450239,NP,,null,,
Creamy Unisex Beauty Salon,"Gangahiti Marg, Kathmandu 44600",+9779805044215,NP,,null,,
Meena’s Nails & Beauty Studio,"Dilli Bazar Height Marg, Kathmandu 44600",+9779843238970,NP,,null,,
Feel unisex beauty salon & training center,"पुरानो बानेश्वर-३४, Devkota Sadak, 44600",+9779847533414,NP,,null,,
Refined Beauty Hub & Makeup Studio,"Jadibuti Chowk, Kathmandu 44600",+9779819100225,NP,,null,,
Lashes Makeup Studio,"3rd Floor, GR Complex, Kathmandu 44600",+97714001504,NP,https://lashesmakeupstudio.com,lashes@gmail.com,+97714001504,
Rakhi Maa Beauty Academy & Makeup Studio,Kathmandu 44600,+9779843503388,NP,,null,,
Tulip Salon,"People's Plaza, 5th Floor Khechapukhu Sadak, Kathmandu 44600",,NP,https://facebook.com,null,,
Curlstudio Nepal,"opposite Nepal Electricity Authority, Ward No. 2, Nava Marg, Kathmandu 44600",+9779705403699,NP,https://instagram.com,null,,
Zoom Beauty Academy - Best Beauty Academy in Swoyambhu Kathmandu,Kathmandu 44620,+9779802351573,NP,https://zoombeautyacademy.com,null,,
Robins Den Boutique Salon,"Gahana Pokhari, Kotal Marg, Kathmandu 44600",+9779706044652,NP,,null,,
Breeze Hair & Beauty Salon,"Opposite Boudhha Stupa, Kathmandu 44600",+9779818074615,NP,https://bit.ly,null,,
Laxmi Beauty Studio & Unisex Salon,"4th Floor, Shop No: 411, Kathmandu Mall, Sundhara Marg, Kathmandu 44600",+9779851096622,NP,,null,,
Diamond Beauty Hub,"City Square, Kathmandu 44600",+9779851206692,NP,,null,,
"Looks Salon, Beauty Hub and Training Centre",Kathmandu 44600,+9779864127681,NP,https://facebook.com,null,,
Glamour Beauty Salon & Makeup Studio,"Rudramati Chowk, Nilopool, Kathmandu 44600",+9779808099219,NP,,null,,
Elegance Beauty Salon and Training Centre,"M7QM+JWQ, Kathmandu 44600",+9779849791855,NP,https://instagram.com,null,,
Lushlooks Beauty Salon,"टुसाल, Boudhanath Sadak, Kathmandu 44600",+9779841843997,NP,,null,,
GlowToGlow The Beauty Studio - Best Bridal Makeup in Kathmandu Nepal,"Pipalbot, Kathmandu 44600",+97714526142,NP,,null,,
Anita beauty salon and makeup studio,"3rd floor, shankhamul, near patan, sano pool, investment bank, building, Kathmandu 44600",+9779822783805,NP,https://anitabeautysalon.com,null,,
Hair n Shanti Unisex salon & Academy,"Near world Link Office, 2nd Floor, Miniso Building,Jawalakhel Chowk, लगनखेल सातदोबाटो मार्ग, ललितपुर 44700",+97715455960,NP,https://hairnshantinepal.com,hairnshantiktm@gmail.com,+97715252052,
द नेक्स्ट लेभल सलुन,"| Opp to Everest Bank, Pulchowk Rd, ललितपुर 44600",+9779807917517,NP,,null,,
Rhubarb Salon of Hair Beauty Makeup & Academy,"GLOBAL IME BUILDING, रत्न मार्ग, +9774601637 44600",+9779801065880,NP,,null,,
Trendy Clippers The Beauty Salon & Training Center,ललितपुर 44600,+9779818068238,NP,,null,,
Ananeke Beauty Salon & Spa,"Labim Mall, 2nd Floor, 44600",+97715453948,NP,https://ananekesalon.com,manager.ananeke@gmail.com,+97714794675,
Style Lounge Unisex Salon - Best Salon In Kathmandu Valley,"Pulchowk Rd, ललितपुर 44700",+97715902338,NP,,null,,
La Bella Beauty Salon,ललितपुर 44600,+9779813475676,NP,,null,,
नयाँ सृष्टि सैलून र कला स्टुडियो,"Opposite of Fresh KTM, 44600 Jhamsikhel Chowk, ललितपुर 44600",+97715426218,NP,,null,,
Laxmee Hair and Beauty Studio,ललितपुर 44600,+97715420907,NP,https://laxmee.com.np,laxmeehairstudio@gmail.com,+97715100736,
Rakhi Maa Beauty Academy & Makeup Studio,काठमाडौँ 44600,+9779843503388,NP,,null,,
Hair City Salon Service & Training Center,"35 Om Sai Marg, Kathmandu 44600, lalitpur 44700",+9779841920495,NP,https://haircitysalonacademy.com,haircitysalonservicetrainingce@gmail.com,+9779841920495,
Refined Beauty Hub & Makeup Studio,"Jadibuti Chowk, काठमाडौँ 44600",+9779819100225,NP,,null,,
"Bellisima Beauty Parlour & Training Centre - The Best Beauty Parlour in Harihar Bhawan, Pulchowk",ललितपुर 44600,+9779863033482,NP,,null,,
Envy Beauty Bar,Rata makai chowk,+9779813914266,NP,,null,,
N.S Parlour and Training Center,ललितपुर 44700,+9779861591342,NP,,null,,
Studio Lavish Unisex Salon,ललितपुर 44600,+97715436614,NP,,null,,
bpretty Beauty Salon,ललितपुर 44600,+9779801153499,NP,https://bprettysalon.com,bprettysalon@gmail.com,+9779801153499,
Bluesky Beauty Salon & Academy,Damkal Chakrapath Marg Dhobighat,+9779761649111,NP,https://blueskybeautyacademy.com,info@blueskybeautyacademy.com,+97715912593,
h78nepal,"Eti Chowk, Jana Bahal Rd, ललितपुर 44600",+9779742871601,NP,https://instagram.com,null,,
Shine Make-up Studio Beauty Salon & Training Center,"opposite to Nepal Investment Mega Bank (NIMB, M87P+QW4 Mahalaxmi, Bahun dhara chowk, Lalitpur 44700",+9779813672814,NP,https://facebook.com,null,,
Sense Unisex Salon,"near sumeru hospital, Damkal chowk, ललितपुर 44700",+9779818048168,NP,https://sense.unisex.salon.com,null,,
Sp glow up make up studio and beauty parlour,"Koteshwor -32, काठमाडौँ",+9779841002901,NP,,null,,
JLON The Beauty Bar,ललितपुर 44600,+9779818994567,NP,,null,,
Bliss by Sakil Kunwar - Labim Mall,Pulchowk-3 Lalitpur Shop No 209 Lalitpur,+97715431410,NP,,null,,
Aajal beauty parlour & Training Center & Nail Artist,"M8G9+5GM opp Ganesh Mandir, ललितपुर 44600",+9779851164874,NP,,null,,
THE REFORM SALON & MAKEUP STUDIO,ललितपुर 44700,+9779819747146,NP,,null,,
Damon Len unisex salon and Academy,ललितपुर 44600,+9779765148958,NP,,null,,
Veda Salon,"44600, ललितपुर",+9779808153972,NP,,null,,
Zoom Beauty Academy - Best Beauty Academy in Nepal,"P84G+P57 Shri Raj Bhawan, Shree Raj Bhawan, Tinkune Madan Bhandari Road, काठमाडौँ 44600",+9779802351564,NP,https://zoombeautyacademy.com,null,,
Kara Hair Salon,ललितपुर 44700,+97715428848,NP,,null,,
Get Gorgeous Beauty Bar & Training Center,"Manidwan Marg, Chakupat, Ward 11, Lalitpur Metropolitan City, Kathmandu 44700",+9779704520287,NP,,null,,
Zoom Beauty Academy - Best Beauty Academy in Gwarko Lalitpur,"M87J+V3P, ललितपुर 44700",+9779802351568,NP,https://zoombeautyacademy.com,null,,
Mechham The Unisex Salon,"Nakhipot, Lalitpur-14, ललितपुर 44700",+9779807052038,NP,,null,,
Berry Beautik Professional Salon,"3 Jhamsikhel Road, ललितपुर 44700",+9779818402280,NP,,null,,
Bliss Beauty Unisex Salon,"Koteshwor-32, काठमाडौँ 44600",+9779813585997,NP,,null,,
Yangkee Beauty Salon,"Mahalaxmi-5, Lalitpur 44600",+9779808123530,NP,,null,,
Cut and Colour Beauty Salon,ललितपुर 44600,+9779808012191,NP,,null,,
Bliss Beauty Salon & Inspiration Centre,"Damkal Chowk, ललितपुर 44700",+9779841358879,NP,,null,,
Supercuts Beauty Salon and Training Center,"M8C9+J6F, ललितपुर 44600",+9779849132327,NP,https://supercutsnepal.com,contact@supercutsnepal.com,+9779849132327,
Cut Beauty Salon & Training Academy,"सेती ओपी मार्ग, काठमाडौँ 44600",+9779851221317,NP,,null,,
D Infinity salon & academy,"44700 Ring Rd, ललितपुर 44700",+9779762285334,NP,,null,,
YESHAWANI SPA,"M85G+463, ललितपुर 44600",+9779763375596,NP,,null,,
Femina Beauty Home & Training Center,"Thasikhel-14, Damodar Marg, 44700",+9779841285928,NP,,null,,
Taj Beauty Salon Unisex & Academy,"15 Deepawali Marg, ललितपुर 44700",+9779828899657,NP,,null,,
STYLE ZONE The Unisex salon,"Milan Chowk, Tikhedewal Marg, ललितपुर 44700",+9779819992045,NP,,null,,
The wow beauty hub,"M89F+HG3, प्रयाग पोखरी मार्ग, ललितपुर 44600",+9779828070646,NP,,null,,
brows inn,"Bishal Chowk - Nakhipot Rd, ललितपुर 44700",+9779803650008,NP,,null,,
Feminist Beauty Parlour,"Opposite of Salesberry, 15 Middle Gate, ललितपुर 44700",+9779849699449,NP,,null,,
Artistry Unisex Hair And Beauty Salon,ललितपुर 44600,+9779826124237,NP,,null,,
Wedding Gown Plus Merina Beauty Parlour And Training Center,"M838+CR2, ललितपुर 44700",+9779803034909,NP,,null,,
Rekha beautiful parlur,"M85F+GV4, Bhusra norotam, ललितपुर 212104",,NP,,null,,
Icon unisex salon,"M89C+MPW, हस्पिटल रोड, ललितपुर 44700",+97715410123,NP,,null,,
Subha Beauty Salon & Training Centre,ललितपुर 44600,+9779851313064,NP,,null,,
The Barber Hub Unisex Salon!,"M89C+X5F, ललितपुर 44600",+97715920550,NP,,null,,
Bird Beauty Academy,"Tikhedewal, ललितपुर 44600",+9779841181345,NP,,null,,
Ash Hair N Beauty Salon,"Velpa Pragatinagar, Gwarko Hattiban Marg, ललितपुर 44700",+9779823651100,NP,,null,,
Glam And Glow Nails Academy,"prayag pokhari, ललितपुर 44700",+9779860280463,NP,,null,,
Satdobato Ab complex,"M85F+RJP, ललितपुर 44700",,NP,,null,,
Looks Salon Nepal,"Complex, 2nd Floor, 88 Kumaripati - Mahalaximisthan Rd, ललितपुर 44600",+9779802323533,NP,https://looksunisexsalon.com,looksunisexsalonnepal@gmail.com,+9779802323533,
The Mirror Unisex Salon,"M833+MM9, Gokul Awas Rd, lalitpur 44700",+9779706387488,NP,https://instagram.com,null,,
TST Parlour & Training Centre,"M896+8F9, ललितपुर 44600",+9779851244591,NP,,null,,
Mint Unisex Salon,ललितपुर 44700,+9779823039150,NP,,null,,
बाल ग्लोस सैलून र छाला हेरविचार,"M839+RVW, तल्चिखेल, बिशाल चोक - नखिपोट रोड, 44700",+9779803650008,NP,,null,,
J B Parlor and Training Center,"M858+QXJ, Lalitpur 447, ललितपुर",+9779841894017,NP,https://facebook.com,null,,
Yl Nail Studio,ललितपुर 44700,+9779810367699,NP,,null,,
Stella The Makeup Studio,ललितपुर 44600,+9779840265531,NP,https://flow.page,partner@flowcode.com,+19176133357,
Le Salon,"International Club, ललितपुर 44600",+97715447842,NP,https://facebook.com,null,,
The Barber Hair & Beauty Salon,"M8FC+R35, Satyamohan Joshi Marg, ललितपुर 44600",+9779767599952,NP,,null,,
Bhintuna Beauty Parlour And Training Center,"M83C+Q72, सातदोबाटो-टीकाभैरब मार्ग, ललितपुर 44700",,NP,,null,,
Megha's Beauty Parlour,"Khumaltar Height, ललितपुर 44700",+9779849305767,NP,,null,,
Deja vu Unisex Beauty Zone,"M89F+CR9, प्रयाग पोखरी मार्ग, ललितपुर",,NP,https://m.facebook.com,null,,
Poonam Beauty Parlour & Training Center,"American GED Chowk, ललितपुर 44700",+9779705651123,NP,,null,,
Le Belle Studio,"Steel Tower, ललितपुर 44600",+9779705678754,NP,https://lebellstudio.com,null,,
Bellissimo The Beauty Studio (Unisex Salon),"M8G8+639, ललितपुर 44600",+9779808267530,NP,https://facebook.com,null,,
Shreya beauty parlour,"M898+2HV, ललितपुर 44600",+9779841852070,NP,,null,,
The ladies world beauty home and training center,ललितपुर 44700,+9779863021694,NP,,null,,
Aa-jaay cuts unisex saloon,ललितपुर 44600,+9779849206098,NP,,null,,
Beauty Lord unisex salon,"Mount View Residency, ललितपुर 33800",+9779851335313,NP,,null,,
Peach Perfect Waxing,"619 Pulchowk Jhamsikhel Marg, ललितपुर 44700",+9779821357118,NP,,null,,
In Bloom,"M8C8+R75, ललितपुर 44600",+97715916241,NP,https://instagram.com,null,,
New moon beauty spa,"M887+3MR, Damodar Marg, ललितपुर 44700",+9779767864373,NP,,null,,
Aaska Glamour Academy Satdobato Branch,"M86G+4JP, Sincha Galli, ललितपुर 44700",+9779851327286,NP,,null,,
"Embellish Studio,Pulchowk (Salon)","Pulchowk Rd, ललितपुर 44700",+97715431341,NP,https://facebook.com,null,,
Aaska Glamour Academy Satdobato Branch,"M86G+3MW, ललितपुर 44700",,NP,,null,,
"Peare stylish beauty home &training center,Kumaripati","M8C9+HF2, लगनखेल सातदोबाटो मार्ग, ललितपुर 44600",+9779841456890,NP,,null,,
Wave salon gwarko Lalitpur,"opposite to united school, M88P+667 Wave salon, 44700",+9779707473465,NP,,null,,
Cutting Edge Unisex Salon,"उग्रचण्डी टोल, 44600, ललितपुर 44600",+9779849450974,NP,https://instagram.com,null,,
KAASHAVI BEAUTY SALON WITH COSMETIC AND TRAINING CENTER,"near Santa Nirangkaari Bhawan, Mahalaxmithan-4, ललितपुर 44200",+9779842838977,NP,,null,,
STYLE SPELL BEAUTY SALON & ACADEMY,,+9779869127095,NP,,null,,
Glam Appearance,"पाटनढोका सडक, ललितपुर 44600",+9779851157854,NP,https://instagram.com,null,,
Kathmandu Hair and Beauty Studio,कार्यविनायक 44100,+9779810179560,NP,https://kathmandusalon.com,null,,
Yashrim beauty parlour,"M8CF+5C8, टंगल रोड, ललितपुर 44700",+9779841741989,NP,,null,,
Sunshine Beauty Parlour & Training Center,"M8F5+P9R, ललितपुर 44600",+9779841567304,NP,,null,,
Samsara makeup studio and beauty hub,"Gwarko, Bahundhara",+9779808774256,NP,,null,,
Lookisimo Nails and Eyelashes Extension Salon,"कृष्ण गल्ली, ललितपुर 44600",+9779815618770,NP,,null,,
Bekha Salon,"M89G+6XQ Okubahal, ललितपुर 44600",+9779702454339,NP,,null,,
Ultimate Hair Studio & Salon,"Damkal Sundarighat Marg Purba, ललितपुर 44700",+9779818402370,NP,,null,,
LePosh Luxury Unisex Salon,"Yala Court, ललितपुर 44600",+97715910400,NP,,null,,
Ramri beauty academy,"M88F+RR7, ललितपुर 44700",,NP,,null,,
Glamour Makeup Studio,"Okubahal, ललितपुर",+9779841708304,NP,,null,,
Makeup Durbar,"Jhamsikhel Road, ललितपुर 44600",+9779851048658,NP,,null,,
Zoom Beauty Academy - Best Beauty Academy in Kausaltar Bhaktapur,Bhaktapur 44600,+9779802351556,NP,https://zoombeautyacademy.com,null,,
Casa Salon,"Dibyashwori TownPlanning, भक्तपुर 44800",+9779708961650,NP,,null,,
Scissor Sisters Hair and Beauty Salon,"Radhe Radhe Rd, भक्तपुर 44800",+9779843159994,NP,,null,,
SR Unisex Beauty Salon and Make-up Studio,"near NMB Bank, भक्तपुर 44800",+9779862937648,NP,,null,,
Krishnaaz Makeup Studio (Radhe Radhe),"Radhe Radhe Rd, भक्तपुर 44800",+9779841514869,NP,,null,,
SAMANA The Beauty Gallery,"MC8C+6QX, भक्तपुर 44800",+9779851277936,NP,,null,,
Lucent Skin and Hair Clinic -Best skin clinic in Bhaktapur,Bhaktapur 44800,+9779841430146,NP,https://lucentskinclinic.com,lucentskinclinic@gmail.com,+9779841430146,
Prava Beauty Salon and Training Center,"Balkot 2, भक्तपुर",+9779841996131,NP,,null,,
Creative hair and beauty salon radhe radhe,"M9GX+JFF Radhe radhe market, Radhe Radhe Rd, मध्यपुर थिमि",+9779860112064,NP,,null,,
Kathmandu hair and beauty studio,"Radhe Radhe Rd, भक्तपुर 44800",+9779763499950,NP,,null,,
crown & curls unisex salon,"Radhe Radhe Rd, मध्यपुर थिमि 44600",+97715915853,NP,,null,,
Beauty Heaven Spa,"M9F9+QWH, मध्यपुर थिमि 44600",+9779707934890,NP,,null,,
Guras Beauty Parlor And Cosmetic Center,"M9H7+H43, मध्यपुर थिमि 44600",+9779860695770,NP,,null,,
Golden Glow Beauty Studio and Training Center,"Kamalbinayak, भक्तपुर 44800",+9779864011394,NP,,null,,
Karuna's Beauty Parlour,भक्तपुर 44800,+9779841018064,NP,,null,,
Laxmi Beauty Home,"M99M+59, Madhyapur Thimi, Bhaktapur Beauty Parlor Thimi, Beauty Parlor, New Thimi, Nayabasti 44800",+9779745874569,NP,https://facebook.com,null,,
Shine beauty salon and makeup studio,मध्यपुर थिमि 44600,+9779803657699,NP,,null,,
DeBeautilox Unisex Salon and Makeup Studio,"Near, Radhe Radhe Rd, मध्यपुर थिमि",+9779841725757,NP,https://facebook.com,null,,
Siruz Beauty Academy and Makeup Studio,"M9P7+V58, Bhaktapur Road, काठमाडौँ 44600",+9779818011095,NP,,null,,
Beauty Station Makeup Studio and Institute,"M9G6+225, मध्यपुर थिमि 44600",+9779849629268,NP,,null,,
Essence unisex parlour,"Manohara phant, 44600",+9779841432130,NP,,null,,
Pearl Beauty Home,"अरनिको राजमार्ग, मध्यपुर थिमि 44800",+9779849557528,NP,https://m.facebook.com,null,,
Flourish.thebeautystudio,"M9C4+CQF, मध्यपुर थिमि 44600",+9779860390146,NP,,null,,
निशा ब्यूटी पार्लर एण्ड कस्मेटीक,Bhaktapur 44600,+9779841631392,NP,,null,,
Rose beauty parlor lokanthali,"M9J6+3RP, मध्यपुर थिमि 44600",+9779860869790,NP,,null,,
Sajhya Glam Studio,"M9F6+P2Q, मध्यपुर थिमि 44600",+9779851341545,NP,,null,,
C RAS BEAUTY STUDIO & ACADEMY By Makeupwithrashmeein,"Degamana, भक्तपुर 44800",+9779860678210,NP,,null,,
Glowcraft Beauty studio & Academy,"MCCJ+FVP, भक्तपुर 44800",,NP,,null,,
Lee-Rai Korean Beauty Salon and Spa,मध्यपुर थिमि 44600,+9779848006384,NP,,null,,
Amicable Beauty & Hair Salon,"Kamalbinayak, भक्तपुर 45800",+9779843318117,NP,,null,,
The mirror salon,भक्तपुर 44800,+9779861116992,NP,,null,,
Pink me up,"M9C4+J66 Park, भक्तपुर 44600",,NP,,null,,
Barshu Beauty Parlour And Cosmetics,"M9J8+67X, मध्यपुर थिमि 44600",+97716635153,NP,,null,,
Ceeru's Beauty Salon,"101 अरनिको राजमार्ग, भक्तपुर 44800",+9779841620517,NP,https://instagram.com,null,,
Stylefix Hair Studio Kamalbinayak Bhaktapur,"Parking, Kamalbinayak, भक्तपुर 44800",+9779849279559,NP,,null,,
Sakira Beauty Parlour & Cosmetics,"MC7F+H63, भक्तपुर 44800",+9779843269816,NP,,null,,
Birendra Unisex Salon,"Bhatkyapati,(Lancha Phalacha, भक्तपुर 44800",+9779801790148,NP,,null,,
Glamor Beauty Point,"M9GX+24W, मध्यपुर थिमि",+9779841431984,NP,,null,,
New Face Beauty Parlour & Training Centre,"MCCH+333, Pottery Square Road, भक्तपुर 44800",+9779841648601,NP,,null,,
Blossoms Beauty Parlour & Nails Studio,"Suryamadhi Taulachhen, Jhatapo gali, भक्तपुर 44800",+9779843269896,NP,,null,,
Glamour Beauty Hub And Make Up Studio,"MCHV+29F, 44800 नगरकोट सडक, भक्तपुर 44800",+9779851176621,NP,,null,,
सुरज हेयर कटिङ्ग सैलुन,"MCCF+J38, नगरकोट सडक, भक्तपुर 44800",+9779803100825,NP,,null,,
J S Beauty Parlour & Training Institute,"MC8G+7WF Bhulancha, सुर्यविनायक 44800",+9779861550413,NP,https://facebook.com,null,,
कृष्नाज मेकअप स्टुडियो,"60 meter east from nagarko bus station, नगरकोट सडक, भक्तपुर 44601",+97716615321,NP,,null,,
Matina studio by susmi,"MCGC+745, भक्तपुर 44800",,NP,,null,,
Rami Beauty Parlour,"MCHQ+2Q9, भक्तपुर 44800",,NP,,null,,
Sama Beauty Arts And Training Institute,"MC8G+WFJ, भक्तपुर 44800",+9779849423898,NP,,null,,
Outspoken beauty salon,"MCFQ+MQW, भक्तपुर 44800",,NP,,null,,
Leezuu Beauty Home,"MCFR+CHX, भक्तपुर 44800",+9779840464880,NP,https://sites.google.com,null,,
Beauty Point Bhaktapur,"MCCR+R4F, भक्तपुर 44800",,NP,,null,,
JB Beauty Center,"MCGP+9WF, Kamalbinayak, भक्तपुर 44800",,NP,,null,,
R.k. Cosmetics And Beauty Parlour,"MC8P+V9P, अरनिको राजमार्ग, भक्तपुर 44800",+9779841110064,NP,,null,,
Manzila's Skin Care & Beauty Salon,"MCC5+9J9, भक्तपुर 44800",+9779761808022,NP,,null,,
सिद्ध पोखरी ब्युटी पार्लर एन्ड ट्रेनिङ सेन्टर,"MCCC+JPQ, सिद्धपोखरी मार्ग, भक्तपुर 44800",+9779818119797,NP,,null,,
DISHMI BEAUTY PARLOR,"MCM5+XR2, भक्तपुर",+9779849618723,NP,,null,,
Aakarshan Beauty Parlour,"MCFJ+42P, त्रिपुरासुन्दरी मार्ग, भक्तपुर 44800",+97716610568,NP,,null,,
Sarmeez Beauty Zone & Training Center,"Kamalbinayak, भक्तपुर 44800",+9779869164816,NP,,null,,
श्रृया ब्युटी पार्लर एण्ड कस्मेटिक सेन्टर,"MCCF+MG2, नगरकोट सडक, भक्तपुर 44800",+9779849170011,NP,,null,,
सुमी लेडीज टेलर्स एण्ड जेनी ब्यूटी पार्लर,"MCFG+3G6, इताहें, भक्तपुर 44800",+9779849355582,NP,,null,,
Reshma Beauty Club & Training Institute,"बाराही मन्दिर, भक्तपुर 44800",+9779843317338,NP,,null,,
Byanju Homestay,"MCHJ+23J Maha Kali, नगरकोट सडक, भक्तपुर 44800",,NP,,null,,
SARANG BEAUTY PARLOUR,"MCFP+9PM, भक्तपुर 44800",,NP,,null,,
Munna hair salon,"MCFR+HPQ, भक्तपुर 44800",,NP,,null,,
Birendra Gents Parlour and salon,"Sipadole jagati, Bhaktapur 44600",+9779851038794,NP,,null,,
Sk beauty home,"Srijananagar-5, भक्तपुर 44800",+9779869290716,NP,,null,,
Om Cosmetics & Beauty Palour,"MCGM+F24, नगरकोट सडक, भक्तपुर 44800",+97716615680,NP,,null,,
श्रृङ्गार ब्युटि पार्लर,"MCCF+VJ2, नगरकोट सडक, भक्तपुर 44800",+97716611120,NP,,null,,
Apekshya beauty salon,भक्तपुर 44800,+9779861173478,NP,,null,,
Muna Makeover Studio,"MCCM+WMG, Inacho - Hanumanghat Rd, भक्तपुर 44800",+9779860113467,NP,,null,,
एन्जला ब्युटी पार्लर ट्र्‍ेनिङ्ग एण्ड कस्मेटिक्स सेन्टर,"MCCG+55V, भक्तपुर मार्ग, भक्तपुर 44800",+9779849893915,NP,,null,,
सरीता पार्लर एण्ड ट्र्‍ेनिङ्ग सेन्टर,"MC8G+98X, सुर्यविनायक, भक्तपुर 44800",+97716615567,NP,,null,,
Sat Saheeb Beauty Clinic,"MCCC+JM7, भक्तपुर 44800",+9779851001080,NP,,null,,
KB Stylish Suryabinayak,"Suryabinayak, Ganesh Mandir Road, भक्तपुर 44800",+9779801227448,NP,https://kbstylish.com.np,null,,
BhatBhateni Hair dresser or salon,"MCCH+9WW, भक्तपुर 44800",,NP,,null,,
White rose beauty parlour and training center,"MCHJ+24J Mahakali sthan, भक्तपुर 44800",+9779849129343,NP,,null,,
Catchy Beauty Zone & Training Institute,"MCG5+2HH, नगरकोट सडक, भक्तपुर 44800",+9779813550545,NP,,null,,
परि ब्यूटी पार्लर एण्ड कस्मेटीक सेन्टर,"बोलाछे -12, बोलाछे, 44800",+9779843038569,NP,https://facebook.com,null,,
R.L COSMETIC AND BEAUTY CLINIC,"Mahakali sthan, भक्तपुर 44800",+9779840051040,NP,,null,,
Beauty with Inisha,"Kamalbinayak, भक्तपुर 44800",+9779861387678,NP,,null,,
Norling Beauty Parlour,भक्तपुर 44800,,NP,,null,,
J3 house,"MCFJ+CFJ, भक्तपुर 44800",,NP,,null,,
Aaha Collection Beauty Parlour,"MCCG+75W, भक्तपुर मार्ग, भक्तपुर 44800",+97716617677,NP,,null,,
Arusha Beauty Parlour,"MCGP+2QW, गरुड कुण्डल सडक, भक्तपुर 44800",,NP,,null,,
Kohinoor Beauty Parlour Nikoshera,"MCH2+M4F, Ajima Marga, मध्यपुर थिमि 44800",+9779842400007,NP,https://instagram.com,null,,
प्रकृति ब्यूटी पार्लर,"MCCF+M94, भर्वाचो मार्ग, भक्तपुर 44800",+9779849752970,NP,,null,,
लक्ष्मी ब्यूटि क्लिनिक एण्ड टर्‍ेनिङ्ग सेन्टर,"MCFH+4V9, त्रिपुरासुन्दरी मार्ग, भक्तपुर 44800",+9779808252044,NP,,null,,
Susmita makeup studio,"MCCC+HQR, नगरकोट सडक, भक्तपुर 44800",,NP,,null,,
Sweta Beauty Home & Training Center,"MC9H+J53, राम मन्दिर रोड, भक्तपुर 44800",+97716617051,NP,,null,,
Manu Beauty Parlour,"MCH5+QJ6, Road, भक्तपुर 44800",+9779851202248,NP,,null,,
चमक सौन्दर्य घर,"MCGQ+PX9, Kamal Pokhari Path, भक्तपुर 44800",+9779841114215,NP,,null,,
Mumtaj,"MCCF+69Q, भक्तपुर 44800",,NP,,null,,
SaZa Beauty Care & Training Centre,सुर्यविनायक 44800,,NP,,null,,
Perfection Unisex Salon & Training Center,"Bhaktapur 1, Shrijananagar",+9779845392593,NP,,null,,
ठीक ब्यूटी पार्लर र ट्रेनिंग सेन्टर,"MCCH+PR6, तौमादी, भक्तपुर 44800",+97716612295,NP,,null,,
ब्युटि केयर कस्मेटिक एण्ड ब्युटिपार्लर,"MCCG+G54, भक्तपुर मार्ग, भक्तपुर 44800",+9779849177304,NP,,null,,
Prettys Beauty Care & Training Centre,"MCGQ+22R, नाम्टार 44100",+9779841818450,NP,,null,,
Angel Cosmetics and beauty parlour (Bina),"MCGJ+2QW, भक्तपुर 44800",,NP,,null,,
Shova beauty parlour,भक्तपुर,+9779843206182,NP,,null,,
"Gossip Beauty parlour, Cosmetics and Gift Shop","MC96+P5V, Sallaghari Bus Stand, नगरकोट सडक, भक्तपुर 44800",+9779818048808,NP,,null,,
New Shringar Beauty Parlour & Cosmetics,"MC7F+M8C, सुर्यविनायक 44800",,NP,,null,,
Rituz Cosmoline & Parlor,"Chokha ganesh, भक्तपुर 44800",+9779861488278,NP,,null,,
Degamana,"Degamana, भक्तपुर 44800",,NP,,null,,
Sangee's Beauty & Wellness,"MC8G+99R, GApali Marg, सुर्यविनायक 44800",+9779808312076,NP,,null,,
Beauty with style studio,"MCFQ+PRH, भक्तपुर 44800",+9779808735848,NP,,null,,
Sanam makeup studio,"MCGQ+CV5, भक्तपुर 44800",+9779849720179,NP,,null,,
श्री श्रृंगार ब्यूटी पार्लर,"MCCJ+H3J, सकोथा, भक्तपुर 44800",+97716616314,NP,,null,,
Deepika Beauty Home And Training Point,"MC8G+XFG, सुर्यविनायक 44800",+9779841621667,NP,,null,,
सौन्दर्य विश्व,"MCFG+2H3, Road, भक्तपुर 44800",+9779818825221,NP,,null,,
Make up with jeena,"Inacho - Hanumanghat Rd, भक्तपुर 44800",+9779860968947,NP,,null,,
शाही सौन्दर्य हेरविचार,"MCCF+PRX, भक्तपुर 44800",,NP,,null,,
parlor,"MCGM+Q79, भक्तपुर 44800",,NP,,null,,
"फेमिना ब्युटी पार्लर, कस्मेटिक एण्ड ट्रेनिङ्ग सेन्टर","MC8G+F6G, Suryabinayak, भक्तपुर 44800",+9779841958850,NP,,null,,
De'Lavish Beauty Centre,कीर्तिपुर 44600,+9779808561602,NP,https://m.facebook.com,null,,
Sakura Beauty Salon,"M7FG+VWG, कीर्तिपुर 44600",+9779868553444,NP,,null,,
Beauty Zone parlour and training center,"M7FH+6RQ, कीर्तिपुर 44600",+9779803550467,NP,,null,,
Hamro Hair Studio(Unisex Salon),"M7JH+MPF, कीर्तिपुर 44600",+9779840832195,NP,,null,,
Shahinoor Unisex Salon Kritipur,कीर्तिपुर 44600,+9779842748877,NP,,null,,
Nirjara Beauty Salon : Best Beauty Parlour in Kathmandu,"Chunne Bhairab Marg, काठमाडौँ 44600",+9779851097472,NP,https://facebook.com,null,,
Rising Beauty Salon & Training Center Tahachal,"ताहाचल मार्ग, काठमाडौँ 44600",+9779841819129,NP,,null,,
Samaachhen (समा:छेँ) The Beauty Home,"M75Q+6WM, कीर्तिपुर 44600",+9779841993410,NP,,null,,
Beauty Sheen,"tyanglaphat chowk, कीर्तिपुर 44600",+9779801196612,NP,,null,,
Swornima Beauty Salon,"M7PG+65W, कीर्तिपुर 44600",+9779847637163,NP,,null,,
Sabi beauty and Hair Salon,"M7RG+8V7, कीर्तिपुर 44600",+9779849337633,NP,https://facebook.com,null,,
The Tiara Unisex Salon,"M7XJ+CF8, चक्रपथ, काठमाडौँ 44600",+9779843222202,NP,,null,,
उज्ज्वल ब्यूटी,"M7FJ+956, Kirtipur Ring Rd, कीर्तिपुर 44618",+9779860645129,NP,,null,,
The Scissors Unisex Salon,"M862+5PC, ललितपुर 44700",+9779709239003,NP,,null,,
Beauty Impressions and Training Centre,"M7HF+78J, Dhalpa - Gamcha Rd, कीर्तिपुर 44600",,NP,,null,,
Shahinoor Unisex Salon,काठमाडौँ 46000,+9779842748877,NP,https://shahinoorunisexsalon.com,null,+9779842748877,+9779842748877
Sosha's Beauty Parlor,"M7FJ+M42 Dobato, कीर्तिपुर 44600",+9779849087449,NP,,null,,
Purnima Beauty Home,"Dobato, 17 Kirtipur Rd, काठमाडौँ 44600",+9779841351074,NP,https://purnima.com.np,null,,
Helan - The Lavish Beauty,"M7XM+344, काठमाडौँ 44600",,NP,,null,,
New Priya Gents Parlour (Unisex),"Loktantra Chowk, कीर्तिपुर 44600",+9779824669966,NP,https://wordpress.com,hello@artfulbaker.blog,,
Reshma Beauty Parlor,"M7HH+8GC, Kirtipur Ring Rd, कीर्तिपुर 44618",+97714335201,NP,,null,,
Trisha Herbal Beauty Parlour,"M7QH+F4Q, कीर्तिपुर 44600",+9779823222040,NP,,null,,
Kalanki >Eky Beauty Lounge Academy,"M7VJ+CJ6, काठमाडौँ 44600",+9779805012512,NP,,null,,
Yachu Hair Oil - Kirtipur,"M7FH+W78, कीर्तिपुर 44600",,NP,,null,,
Yashu Unisex Beauty Saloon,"Kirtipur Ring Rd, काठमाडौँ 44600",+9779869635783,NP,,null,,
Nagau dobato kirtipur ktm,"M7FH+W5J, Nagau dobato, कीर्तिपुर 44600",,NP,,null,,
De' Bibha Beauty Salon,"गणेशमान सिंह पथ, काठमाडौँ 44600",+9779765045556,NP,,null,,
Royal Looks Beauty Saloon,"M7FF+R65, कीर्तिपुर 44600",,NP,,null,,
Ananeke Beauty Salon & Spa,"Krishna Sadan, 2nd Floor Shree, Chakku Bakku Galli, काठमाडौँ 44600",+97714794675,NP,https://ananekesalon.com,manager.ananeke@gmail.com,+97714794675,
The Hair Port,"M7JH+8P4, कीर्तिपुर 44600",+9779841321855,NP,,null,,
Hair De Beauty Spot,"Gaurishankar marg, काठमाडौँ 44600",+9779849420502,NP,,null,,
Beauty Parlor (for ladies),"M7MJ+G86, कीर्तिपुर 44600",,NP,,null,,
NOVA Beauty Salon & Academy,"13 Bafal Marg, काठमाडौँ 44600",+9779702131333,NP,,null,,
Charming Blossom Studio,"M798+2Q3, कीर्तिपुर 44600",+9779860863246,NP,,null,,
Studio21 makeup studio & unisex salon,"Ganeshman Singh Path, काठमाडौँ 44600",+9779848101111,NP,,null,,
Suragini Beauty Salon & Spa,"Balkhu Chowk, काठमाडौँ 44600",+9779851313412,NP,,null,,
Royal Star Beauty parlour and Nail Art training center,"M7VJ+JHJ, काठमाडौँ 44600",+97715218293,NP,https://facebook.com,null,,
Manila's Beauty Parlour,"Mali Road, कीर्तिपुर 44600",+9779843934831,NP,,null,,
BLISS by Sakil Kunwar Chhaya Center,"3rd Floor Shop N0, Chhaya Center, 26 भगवान बहाल मार्ग, काठमाडौँ 44600",+97715252016,NP,,null,,
Shahnaz Beauty Home,"M7FH+GWQ, पांगादोबाटो रोड, कीर्तिपुर 44618",+9779803139648,NP,,null,,
Arjun hair dresser and saloon,"M7QJ+Q5R, Balkhu Khola - Amritnagar Chowk Rd, कीर्तिपुर 44600",,NP,,null,,
Elegance Beauty Salon and Training Centre,"M7QM+JWQ, काठमाडौँ 44600",+9779849791855,NP,https://instagram.com,null,,
Ushine,"M7WQ+58G, काठमाडौँ 44600",+9779803813093,NP,,null,,
Ruina Beauty Home,"M7HH+94R, Chikhu Rd, कीर्तिपुर 44618",+9779843917840,NP,,null,,
शालिनी ब्यूटी पार्लर र ट्रेनिंग सेन्टर,"M7GJ+26R, Kirtipur Rd, कीर्तिपुर 44618",+9779841330199,NP,,null,,
Lady care Aarati beauty parlour,"M7HH+MF4, कीर्तिपुर 44600",,NP,,null,,
Yashu Unisex Saloon,"dobato, Buddha bihar, कीर्तिपुर 44600",+9779869635783,NP,,null,,
B&B beauty home,"M7FH+X46, किर्तिपुर रोड, कीर्तिपुर 44618",+9779841728523,NP,,null,,
Lotus Cosmetics,"M7FH+FW5, Panga Rd, कीर्तिपुर 44600",+9779841718921,NP,,null,,
Bevel Unisex Salon - Best Salon In Kathmandu,काठमाडौँ 44600,+97715922281,NP,,null,,
स्वर्गदूतले गरेको सौंदर्य हेरविचार,"M7RX+9GQ, कुलेश्वोर मार्ग, काठमाडौँ 44614",+97715387409,NP,,null,,
New Suragini Beauty Parlour,"Thambahal, कीर्तिपुर 44618",+9779851313412,NP,,null,,
Glam House Unisex Parlour And Academy,"चक्रपथ, काठमाडौँ 44600",+9779866478188,NP,,null,,
घाम सौन्दर्य घर र प्रशिक्षण केन्द्र,"Shikali Marg, ललितपुर 44600",+9779841098272,NP,,null,,
Classic Hair & Beauty Unisex Salon,काठमाडौँ 44600,+9779745696332,NP,,null,,
Royal Beauty Salon,"bazar marg Gaurishankar Sadak, काठमाडौँ 44600",+9779841609114,NP,,null,,
VedaSalonBoudha,"Tusal, N D Complex, बौद्धनाथ सडक, काठमाडौँ 44600",+9779704528147,NP,,null,,
LumiGlow Beauty Hub,काठमाडौँ 44600,+9779841996161,NP,,null,,
Hair n Shanti Unisex Salon,"Naxal, Bhatbhateni 2nd Floor, above KFC, 44600",+97714544756,NP,https://hairnshantinepal.com,hairnshantiktm@gmail.com,+97715252052,
Stylist station beauty saloon,"M7PG+65W, कीर्तिपुर 44600",,NP,,null,,
Aaska Glamour Academy Pvt Ltd -Kalanki Branch,"M7VM+FF9, काठमाडौँ 44600",+9779814628739,NP,,null,,
Good New ITC Beauty Hub & Skin Care Center,"Nagarjun-10, 44600",+9779805509979,NP,,null,,
New aarthi Jen's Nd ledis parlour,"M7WJ+5Q2, काठमाडौँ 44600",,NP,,null,,
Glow&Shine Beauty Parlour & Cosmetics,"M7VH+8Q6, काठमाडौँ 44600",+9779843086555,NP,,null,,
MEDPA Hair Cutting Sewa,"M7GJ+GGV, चक्रपथ, कीर्तिपुर 44618",+9779823695421,NP,,null,,
GHC & SOLO SALON,"M78F+694, कीर्तिपुर 44600",,NP,,null,,
भट्टराई चोक (धारे),"M7VJ+67R, काठमाडौँ 44600",,NP,,null,,
Samragi beauty salon by Ashvika,"Nakhu, ललितपुर 44600",+9779823065528,NP,,null,,
New Esther super salon,"M7FH+2RC, Road, कीर्तिपुर 44618",+9779800690765,NP,,null,,
korean beauty salon,"Ekantakuna-Tikabhairab Rd, कार्यविनायक 44600",+9779813390027,NP,,null,,
Capital Spa,"M7VJ+JGR, काठमाडौँ 44600",+9779768712251,NP,,null,,
Chwasaa,"M77G+6X3, कीर्तिपुर 44600",,NP,,null,,
परी ब्यूटी पार्लर र कस्मेटिक,"M7VM+86R, संरचना मार्ग, काठमाडौँ 44600",,NP,,null,,
फेसियल हाउस,"shop no 403, काठमाण्डौ मल, 4th floor, काठमाडौँ 44600",+9779841135172,NP,https://facialhouse.com.np,facialhousenepal@gmail.com,+9779841135172,
Apollo Beauty Station,"M7RW+C73, Kuleshwor Awas Sadak, काठमाडौँ 44600",+9779841329966,NP,,null,,
Charkhal Dillibazar,"मालपाेत अगाडी, चारखाल डिल्लीवजार, काठमाडौँ 44600",+97714413958,NP,https://itcbeautytrainingschool.com,info@itcbeautytrainingschool.com,+9779762875225,
Sindur beauty salon and training center,"M864+883, M864+887Lalitpur 44600",+9779840243810,NP,,null,,
Aspire Beauty Unisex Salon Academy,ललितपुर 44600,+9779842455193,NP,https://facebook.com,null,,
Ananeke Beauty Salon,"दरवार मार्ग, काठमाडौँ 44600",+97714794675,NP,,null,,
OA'S Beauty & Bubbles Preety Salon,"M7R2+96R Hariyal Awas, चन्द्रागिरी 44600",+9779803608589,NP,,null,,
Aaina Unisex Salon& Academy,"Bluestar Complex, काठमाडौँ 44600",+9779860872271,NP,,null,,
Supercuts Beauty Salon & Training Center,"Civil Mall, 5th Floor, काठमाडौँ 44600",+9779808235438,NP,https://supercutsnepal.com,contact@supercutsnepal.com,+9779849132327,
Hello Nepal,"M7CJ+QV7, कीर्तिपुर 44600",+9779808582117,NP,,null,,
लोटस ब्यूटी पार्लर र प्रशिक्षण केन्द्र,"मास्टर मार्ग, काठमाडौँ 44600",+9779841939959,NP,,null,,
krisha beauty parlor,"M8G4+372, ललितपुर 44600",+9779849421634,NP,,null,,
Nail art & mehendi,कीर्तिपुर 44600,+9779813722230,NP,,null,,
Surana Beauty Parlour,"M7CG+PMQ, कीर्तिपुर 44600",,NP,,null,,
सृजना ब्यूटी पार्लर,"M7GG+7V2, किर्तिपुर रोड, कीर्तिपुर 44618",,NP,,null,,
PAUDEL NIWAS,"M7MF+VWJ, कीर्तिपुर 44600",,NP,,null,,
Ukarna Aesthetics,"14 Kalanki Lampati, काठमाडौँ 44600",,NP,,null,,
Beauty nest parlor,"M7QJ+M3G, काठमाडौँ 44600",,NP,,null,,
मेरो रुचि हर्बल ब्यूटी,"P72P+WW2, चेतना मार्ग, काठमाडौँ 44600",,NP,,null,,
UNISEX SALOON,"M8HW+JGR, सेती ओपी मार्ग, काठमाडौँ 44600",+9779860920921,NP,,null,,
Lookz Beauty Parlour,"M799+W4Q Ganesh Mandir, Dhalpa - KMV Rd, कीर्तिपुर 44600",+9779849150150,NP,,null,,
Classy Hair & Beauty Unisex Salon,काठमाडौँ 44600,+9779800649496,NP,,null,,
Veda Hair Salon,"Charkhal Rd, काठमाडौँ 44600",+97714521231,NP,,null,,
Pragya Beauty Parlour ( प्रज्ञा ब्युटी पार्लर ),"M7QJ+P4, कीर्तिपुर 44600",,NP,,null,,
Sama Beauty Parlour,"M79J+XQ4, कीर्तिपुर 44600",+9779860461304,NP,,null,,
Hidden beauty parlour,"Kadaghari, Football ground, काठमाडौँ 44600",+9779869784965,NP,,null,,
Jayram Thakur Salon,"tyanglaphat chowk, कीर्तिपुर 44600",,NP,,null,,
Parlor Sewa by Murarkey,ललितपुर 44600,+9779866426111,NP,https://murarkey.com,customercare@murarkey.com,+9779866426111,
Om SPA & Beauty Salon,"M8P4+93R, सानेपा रोड, ललितपुर 44700",+9779840292943,NP,,null,,
Tranquility Spa,"Near Greenwich Hotel, Maitri Marg, ललितपुर 44700",+9779802021269,NP,https://tranquilityspa.com.np,info@tranquilityspa.com.np,+9779802365118,
Renew health care spa,"M9G2+FJ2, ढुंगे धारा मार्ग, काठमाडौँ 44600",+9779707295997,NP,,null,,
TG Beauty Care & Academy P.LTD,"Narefant, Jadibuti, काठमाडौँ 44600",+9779803279279,NP,,null,,
Sabi Beauty Hub and Training Centre,"Himali Marga, काठमाडौँ 00977",+9779860644590,NP,,null,,
U&Me - UNISEX SALON & MAKEUP STUDIO,"44600, मध्यपुर थिमि 44600",+9779822224444,NP,,null,,
Kripa glam & Cosmetics,मध्यपुर थिमि 44600,+9779818120171,NP,,null,,
Heaven Beautyparlor and Tiktok Makeup Studio,"M9F3+X6J, Jadibuti, Kathmandu, Koteshwor, 44600",+9779812090666,NP,https://priyak.com.np,null,,
RL Beauty Home Lokanthali,"Ramailo Chowk, मध्यपुर थिमि 00977",+9779851171276,NP,,null,,
LADLY BEAUTY EXPRESS & TRANING CENTRE,"Manohara Steel Brg, मध्यपुर थिमि 44600",+9779808174753,NP,,null,,
Blush and Bloom makeup studio,मध्यपुर थिमि 44600,+9779841731276,NP,,null,,
Orchid Beauty Studio.,"M9RV+PJF, मध्यपुर थिमि 44600",+9779841675962,NP,,null,,
Glow up beauty with makeup studio & training center,"Madhyapur thimi, भक्तपुर 44800",+9779861518591,NP,https://facebook.com,null,,
Samlet Beauty Parlour & Training Center,"M8JX+2JW, रत्न मार्ग, काठमाडौँ 44600",+9779841311201,NP,,null,,
Shining Look Beauty Salon,"M8HW+H9X, सेती ओपी मार्ग, काठमाडौँ 44600",+9779809631894,NP,https://facebook.com,null,,
R.B. Parlor And Spa,काठमाडौँ 44600,+9779811683137,NP,,null,,
Valentino Unisex Salon,"Koteswor, SR Complex, 2nd Floor, 44600",+97714600631,NP,,null,,
Don,"M9H3+2RH, काठमाडौँ 44600",,NP,,null,,
Lokanthali opposite to jadibuti tarkari bajar,"M9F4+65R, मध्यपुर थिमि 44600",+9779841432130,NP,,null,,
Trishna beauty parlor,काठमाडौँ 44600,+9779841485717,NP,,null,,
Rubina Beauty parlour,"koteswhor -35, काठमाडौँ 44600",+9779803002756,NP,,null,,
RD Unisex Salon,"Satya Marga, काठमाडौँ 44600",+9779843626970,NP,https://rdsalon.com.np,null,,
KB Stylish Koteshwor,"ANGEL LORD ACADEMY HIGH SCHOOL, काठमाडौँ 44600",+9779801227448,NP,https://kbstylish.com.np,null,,
Flora Spa,"M8GW+962, काठमाडौँ 44600",+9779763488180,NP,,null,,
R.P. Parlor And Spa,"M9G2+4F5, काठमाडौँ 44600",+9779811683137,NP,https://tiktok.com,null,+NP987651679,
Fine Beauty Care with Makeup Studio,"M9FM+3VM, मध्यपुर थिमि 44600",,NP,,null,,
Kaushika Ko Beauty Home,"Radhe Radhe Rd, मध्यपुर थिमि",+9779826070846,NP,,null,,
Riza Beauty Parlor,"M9J8+68H, मध्यपुर थिमि 44600",+9779841752850,NP,,null,,
Shadow Beauty Salon,"M8HV+CWR, काठमाडौँ 44600",+9779741836325,NP,,null,,
NAILORÉ,"Tinkune - 34, काठमाडौँ 44600",+9779708240714,NP,https://facebook.com,null,,
Royal de' Salon,"M99P+X87, Thimi-Biruwa Rd, अनन्तलिङ्गेश्वर",+9779841475655,NP,,null,,
Noyana Beauty Hub,"Tinkune, काठमाडौँ 44600",+9779702434785,NP,,null,,
Glow To Glow - Best Beauty Academy in Kathmandu Nepal,"New Baneshwor, काठमाडौँ 44600",+9779851116142,NP,https://glowtoglow.com,null,,
Manisha Beauty Parlor And Training Center,"M9J8+78X, मध्यपुर थिमि 44600",+9779849576762,NP,,null,,
Sandhya Beauty parlour,"Gatthaghar Road, मध्यपुर थिमि 44600",+9779841490868,NP,,null,,
RT NAIL AND BEAUTY STUDIO,"Sun City Marg, काठमाडौँ 44600",+9779827622340,NP,,null,,
Ridhi sidhi beauty parlour & training center,"Unnamed Road, Kathmandu 44600, कागेश्वरी मनोहरा 44600",+9779824687999,NP,,null,,
Yours beauty hub and training centre,"M9V8+GP2 Nepal Yatayat Bus Stop, पुरानो सिनामंगल मार्ग, काठमाडौँ 44600",,NP,,null,,
रचनात्मक ब्यूटी पार्लर र प्रशिक्षण केन्द्र,"44600, मध्यपुर थिमि",,NP,,null,,
Sage & Glow Beauty Studio and Unisex Salon,"M9R8+722, काठमाडौँ 44600",+9779709086075,NP,,null,,
Roja Beauty Parlour,"M9RM+298, मध्यपुर थिमि 44600",,NP,,null,,
"लिसम ब्यूटी कस्मेटिक स्टोर , ठिमी",मध्यपुर थिमि 44800,+97715093519,NP,,null,,
Sangam beauty parlour,"M9RM+4R6, मध्यपुर थिमि 44600",,NP,,null,,
The Girls World Fashion & Makeup studio,"M9V9+8MH, pepsicola old, काठमाडौँ 44600",+9779814015593,NP,,null,,
पञ्चकन्या ब्युटी पार्लर एण्ड मसाज सेन्टर,"M9GF+5XP, अरनिको राजमार्ग, मध्यपुर थिमि 44800",+9779849829546,NP,,null,,
D.J . ब्यूटि होम एण्ड ट्र्‍ेनिङ्ग सेन्टर,"M9CP+J8G, Biruwa Road, मध्यपुर थिमि 44800",+9779808221502,NP,,null,,
Prerana Beauty Parlour,"M9FF+95F, अरनिको राजमार्ग, मध्यपुर थिमि 44800",+9779841232028,NP,,null,,
Estuka Hair Stand,"Pepsicola near Suncity, काठमाडौँ 44600",,NP,,null,,
LOOKWELL Salon,"Pepsicola town planing near laxmi bank, काठमाडौँ 44600",+9779810320973,NP,,null,,
Dharma hair salon,मध्यपुर थिमि,,NP,,null,,
Beauty Zone Beauty Parlour,"M9CM+RRG, मध्यपुर थिमि",+9779851129430,NP,,null,,
Roslin Beauty Home,"Suncity chowk, काठमाडौँ 44600",+9779860063110,NP,,null,,
Sama Beauty Clinic & Cosmetics,"M9MQ+53J, मध्यपुर थिमि 44800",,NP,,null,,
The beauty zone and cosmetics,"365 Sachetak Marg, काठमाडौँ 44600",,NP,,null,,
Look Live Saloon & Beauty Academy,"M9Q6+RHC, काठमाडौँ 44600",,NP,,null,,
The Glamour Studio,"M9QQ+VF3, Dhunche Rd, मध्यपुर थिमि 44600",,NP,,null,,
Usha Beauty Home,"M9H8+3P8, मध्यपुर थिमि 44600",,NP,,null,,
सौन्दर्य ब्यूटी पार्लर एण्ड टे्र्‍निङ्ग सेन्टर,"M9HP+58F, मध्यपुर थिमि 44600",+9779860354676,NP,,null,,
स्पर्श र चमक सौन्दर्य घर,"M9FF+MM9, अरनिको राजमार्ग, मध्यपुर थिमि 44600",+9779841308892,NP,,null,,
Classy Beauty Care & Training Center,"M9FP+283, मध्यपुर थिमि",+9779823034698,NP,https://facebook.com,null,,
Shubisha Beauty Parlour & Training Center,"M9V8+7P4, काठमाडौँ 44600",+9779841528229,NP,,null,,
ब्यूटी पार्लर र कस्मेटिक पसल,"M9JC+WM4, मध्यपुर थिमि 44600",,NP,,null,,
लुमन्ति ब्यूटी होम एण्ड ट्र्‍ेनिङ्ग सेन्टर,"M9JP+PJG, पुरानो बाटो, मध्यपुर थिमि 44800",+9779841040821,NP,,null,,
OM BEAUTY PARLOUR AND TRENING CENTER,काठमाडौँ 44600,+9779841722238,NP,,null,,
Saanz Glowing Makeup Studio,"M9FF+FJ7, मध्यपुर थिमि 44600",+9779841435909,NP,,null,,
Makeover Beauty Parlour Tranning Center,"M9FJ+66Q, अरनिको राजमार्ग, मध्यपुर थिमि 44600",+97716637281,NP,,null,,
Kundan Hair Salon,"3 Sangameshwor Marg, मध्यपुर थिमि",,NP,,null,,
RAYS BEAUTY STUDIO AND UNISEX SALON,मध्यपुर थिमि 44600,+9779843252121,NP,https://raysbeautystudio.com,null,,
G1 Beauty Parlour & Makeup Studio,"Harhar Mahadev, काठमाडौँ 45600",+9779803223537,NP,,null,,
Hidden Beauty Academy,"M9FH+6Q8, मध्यपुर थिमि 44600",+9779808362684,NP,,null,,
New Look Beauty Home and Cosmetic Center,"M9J8+682, मध्यपुर थिमि 44600",,NP,,null,,
Glam Up Beauty Parlour and Training Center,"Chardobato, मध्यपुर थिमि 44600",+9779803682432,NP,,null,,
आश्री भट्टराई,"M9JF+369, मध्यपुर थिमि 44600",,NP,,null,,
शिवम् कस्मेटिक एण्ड व्युटिपार्लर शप,"M9FF+P2V, अरनिको राजमार्ग, मध्यपुर थिमि 44600",+9779842655519,NP,,null,,
नरेश ब्यूटी होम,"M9MP+5M9, पुरानो बाटो, मध्यपुर थिमि 44600",+9779841543877,NP,,null,,
Barahi Beauty Parlour and Cosmetics,"M97P+XF9, अनन्तलिङ्गेश्वर",+9779885174502,NP,,null,,
Aaina & edge unisex saloon,काठमाडौँ 44600,+9779843082062,NP,,null,,
Jagulu Cosmestic & Beauty Parlour,"Jagulu Tower, अरनिको राजमार्ग, मध्यपुर थिमि 44600",+9779841245664,NP,,null,,
"The Beauty world Makeup, Parlour Traning & Service Center","M9CQ+R48 Madhyapur Hospital Road, मध्यपुर थिमि",,NP,,null,,
Zoom Beauty Academy - Best Beauty Academy in Suryabinayak Bhaktapur,"MC8F+9V8, सुर्यविनायक मार्ग, सुर्यविनायक 44800",+9779802351559,NP,https://zoombeautyacademy.com,null,,
RL Unisha Unisex Beauty Home,"M9R7+HQM, पुरानो सिनामंगल मार्ग, काठमाडौँ 44600",,NP,,null,,
Apamarga Ayurvedic Pharmacy and Apamarga Beauty Park,"M9WF+5X5, कागेश्वरी मनोहरा 44600",,NP,,null,,
Paroksi Beauty and Training Hub,"M9V9+992, काठमाडौँ 44650",,NP,,null,,
Angel Beauty Parlour,"M9FJ+73M, अरनिको राजमार्ग, मध्यपुर थिमि 44800",+9779803027775,NP,,null,,
"Naya thimi Radhe,radhe bhaktapur","M9GX+GMR, Radhe Radhe Rd, मध्यपुर थिमि",,NP,,null,,
सूर्यमुखी ब्यूटी पार्लर अनि ट्रेनिंग सेन्टर,"M9FP+54W, अरनिको राजमार्ग, मध्यपुर ठिमी 44800",+9779841736437,NP,,null,,
Glam With Maishu,मध्यपुर थिमि,+9779845165648,NP,,null,,
Ranjals aesthetic korean shop and Beauty Parlour,"JGM9+JR4, Layaku Marga, बनेपा 45210",+9779823831882,NP,,null,,
CTEVT AFFILIATED PEARL BEAUTY PARLOUR & TRAINING CENTER,"JGHF+VG2 Panauti Bus Stand, बनेपा-पनौती-खोपासी रोड, बनेपा 45210",+9779841689372,NP,,null,,
imana unisex salon and academy,"JGJC+8XQ, बनेपा 45210",+9779843362092,NP,,null,,
Makeover Beauty point,"mukti marg, बनेपा 45210",+9779818330580,NP,,null,,
"Aalooza Nails, Beauty Spa and training centre","ganesthan, Tindhara chowk, बनेपा 45210",+9779843414037,NP,,null,,
Makeover Beauty Salon,"JGJF+CG8, Chandeshwori Marg, बनेपा 45210",+9779843531990,NP,,null,,
Unic Beauty And Hair Care,"JGJF+HF3, Chandeshwori Marg, बनेपा 45210",+9779841206255,NP,,null,,
The Beauty Buzz parlour,"JGH9+W77, बनेपा 45210",,NP,https://tiktok.com,null,+NP98765168,
Perfect Beauty Care And Clinic,"JGJ9+VM5, बनेपा 45210",,NP,,null,,
Blush Lounge makeup studio (Makeupbybarsa),"अरनिको राजमार्ग, बनेपा 45210",+9779801023216,NP,https://instagram.com,null,,
Sunita Beauty Studio,बनेपा 45210,+9779863920479,NP,https://facebook.com,null,,
Prasansha Beauty Parlour And Treaning Center,"JGM9+J6F, बनेपा 45210",+9779849695629,NP,,null,,
Charm Beauty Care,"JGJC+2QM, बनेपा 45210",+9779841735752,NP,,null,,
Meraki Beauty Academy,"Bhaktapur-Nala-Banepa%20road,%20Banepa.518272&q=My%20Location&t=m, 633171 %20Nepal&ll=27, 85",+9779845997614,NP,https://facebook.com,null,,
SN SALON,"7 Chandeshwori Marg, बनेपा 45210",,NP,,null,,
CTEVT Affiliates CUTS AND CARE B.P & T.C,बनेपा 45210,+9779841779293,NP,,null,,
Creative Hair Cutting Saloon,"JGHF+PCQ, बनेपा 45210",+9779841104856,NP,,null,,
Swornika Beauty hub Banepa pulbazar,"JGJ7+WF5, उग्रतारा जनागाल 45210",,NP,,null,,
Banepa Facial House Skin Care & Makeup Studio,"7 Chandeshwori Marg, बनेपा 45210",+9779823544249,NP,,null,,
Ajay hair cutting salon and ladies & gents parlor,बनेपा 45210,+9779811236003,NP,,null,,
Bless Makeup Studio and skin care,"Chadanichook, अरनिको राजमार्ग, बनेपा 45210",+9779841637247,NP,,null,,
Banepa,"JGH9+W7F sinagal road, बनेपा 45210",,NP,,null,,
makeup_galaxy_by_nilam,"JGP9+G96, Krishi Marg, बनेपा 45210",+9779801313861,NP,https://instagram.com,null,,
Pragati beauty care and training center,बनेपा 45210,+9779843567996,NP,,null,,
Sabi Beauty Care And Cosmetics,"Dhulikhel Hospital, धुलिखेल 45200",,NP,,null,,
New Dipak hair kating,"JGMG+554, बनेपा 45210",,NP,,null,,
Dipu house,"JGJF+MG5, Banepa-RabiOpi Road, बनेपा 45210",,NP,,null,,
Rojina beauty parlor,"JGJG+244, बनेपा 45210",,NP,,null,,
Elite Nail Studio,बनेपा 45210,+9779702628380,NP,https://elitenstudio.com,null,,
Shree Chandeshwori Hair Cutting Center,"JGPH+36F, बनेपा 45210",+9779849316975,NP,,null,,
"Sanisha Makeups,The Makeup Studio",बनेपा 45210,+9779817278990,NP,,null,,
Zoom Beauty Academy - Best Beauty Academy in Banepa Kavre,,+9779802351552,NP,https://zoombeautyacademy.com,null,,
Monika's Beauty Parlor,"2 बनेपा- नाला सडक, नाला उग्रचन्डी",,NP,,null,,
Badal Hair Cutting Salon,"JGHG+FP3, बनेपा 45210",+9779813123450,NP,,null,,
Bhomiz Tatoo House,"JGMG+7FF, बनेपा 45210",,NP,,null,,
Glam by Roshani Beauty salon & training centre,"JFPQ+WHM, साँगा",,NP,,null,,
FAIREVER BEAUTYPARLOUR,"अरनिको राजमार्ग, धुलिखेल 45200",,NP,https://facebook.com,null,,
Ayusma beauty parlour,"JGHF+WFX, बनेपा 45210",,NP,,null,,
GodMother studio,"bhimsensthan, बनेपा 12559",+9779803485826,NP,https://canva.com,null,,
Sai beauty parlor,"JH93+4HG, धुलिखेल 45200",,NP,,null,,
Makeup Mantra Makeup Studio,उग्रतारा जनागाल 45210,+9779840259812,NP,,null,,
Prettyclicknepal Banepa,"JGJF+4G8, Chandeshwori Marg, बनेपा 45210",,NP,,null,,
Fumin Salon,धुलिखेल 45210,+9779866003595,NP,https://instagram.com,null,,
Chandiha Hair Dresser,"JG9X+9RX, धुलिखेल 45200",,NP,,null,,
हेयर सेलून,"JGJ7+WJ4, उग्रतारा जनागाल 45210",+9779851058591,NP,,null,,
Prajana Beauty Parlour And Cosmetic Center,"MG34+MJV, नाला उग्रचन्डी 45200",+9779843633345,NP,,null,,
Sandhya beauty parlor,"Kathmandu, Dhulikhel, Vandol, University",,NP,,null,,
Amara Skin & Hair Clinic,"Banepa - Panauti Rd, बनेपा 45210",+9779705181819,NP,,null,,
Sham Hair Salon,"JH83+XMG, धुलिखेल मार्ग, धुलिखेल 45200",+9779841621408,NP,,null,,
Radhe Krishn salon,"JGFF+6M9, उग्रतारा जनागाल 45210",,NP,,null,,
Manju Beauty Parlor,"MG36+72M, नाला उग्रचन्डी",+9779849577630,NP,,null,,
Sunshine Beauty Parlour,"JHC3+87, धुलिखेल 45210",+9779823457467,NP,,null,,
Sadabahar Beauty Parlour,"JHC3+W3Q, धुलिखेल 45200",,NP,,null,,
Lambu s parlour (ravi,"Dhulikhel Hospital, धुलिखेल 45200",,NP,,null,,
Shree Shidi Vinayak Beauty parlour,"S S V Beauty parlour Banepa municipality, ward 14, साँगा",+9779818636656,NP,,null,,
New Royal Beauty and Unisex Salon,"M8RP+CCR, काठमाडौँ 44600",+9779813451412,NP,,null,,
Zoom Beauty Academy - Best Beauty Academy in Nepal,"P84G+P57 Shri Raj Bhawan, Shree Raj Bhawan, Tinkune Madan Bhandari Road, काठमाडौँ 44600",+9779802351564,NP,https://zoombeautyacademy.com,info@zoombeautyacademy.com,+9779851166850,
Treasure Unisex Salon And Academy,काठमाडौँ 44600,+9779745699898,NP,,null,,
Nirjara Beauty Salon : Best Beauty Parlour in Kathmandu,"Chunne Bhairab Marg, काठमाडौँ 44600",+9779851097472,NP,facebook.com,null,,
Plush Salon and Makeup Academy,"Tindhara, काठमाडौँ 44600",+9779808428150,NP,,null,,
M Style Salon and Beauty Hub,"M8QJ+FVC, काठमाडौँ 44600",+9779851400005,NP,,null,,
Elite Hair Artist Salon and Academy,काठमाडौँ 44600,+9779848067588,NP,,null,,
Hair n Shanti,"Eye Plex Mall, 1st Floor, काठमाडौँ 44600",+97714574661,NP,https://hairnshantinepal.com,hairnshantiktm@gmail.com,+97715252052,
Benchmarks Hair & Beauty Studio | Academy,काठमाडौँ 44600,+97715912952,NP,,null,,
Lavish Salon,"नारायणहिटी पथ, काठमाडौँ 44600",+97714542030,NP,,null,,
Spalon Health & Beauty Pvt. Ltd,"Dilliraman Marg, काठमाडौँ 44600",+97714513913,NP,https://spalonhealthbeauty.com.np,info@spalonhealthbeauty.com.np,+97714413913,
7 Thirteen Unisex Hair Salon,काठमाडौँ 44600,+97715911552,NP,facebook.com,null,,
Serene Salon & SPA,"Hotel Yak & Yeti Lane, दरवार मार्ग, काठमाडौँ 44600",+97715322702,NP,https://serenewellnessnepal.com,null,,
Akala Hair and beauty salon,"Samakhusi Marg, काठमाडौँ 44600",+9779860917399,NP,,null,,
Cma Creativity (The Hair Studio) Salon,"Bibhuti Marga, काठमाडौँ 44600",+9779821754536,NP,instagram.com,null,,
Beauty & Co.,काठमाडौँ 44600,+9779818459500,NP,instagram.com,null,,
Hair n Shanti Unisex salon,"Chhaya center, काठमाडौँ 44600",+97715252052,NP,https://hairnshantinepal.com,hairnshantiktm@gmail.com,+97715252052,
Krish Hair and Beauty Salon,"44600 काठमाडौँ, Putali Sadak, Star Mall Ground Floor",+9779860293120,NP,,null,,
MY Sangalo Luxury Studio,"Jagritinagar marg, काठमाडौँ 44600",+9779808429858,NP,instagram.com,null,,
Neeldavid's,"Eyeplex Mall, देवकोटा सडक, काठमाडौँ 44600",+9779841501768,NP,instagram.com,null,,
Shantaz Salon and International Academy,"Pipalbot, पाको सडक, काठमाडौँ 44600",+97714917717,NP,,null,,
Pi Barber Studio,काठमाडौँ 44600,+9779706091284,NP,,null,,
& Salon,"Gahana Pokhari Marg, काठमाडौँ 44600",+9779801021263,NP,,null,,
Volume Salon & Academy KTM,"Bhagwati Temple, Sanogaucharan near, काठमाडौँ 44600",+9779826453321,NP,https://volumesalons.com.np,null,,
Shahinoor Unisex Salon Samakoshi,"Rehdon pool, काठमाडौँ 46000",+9779842748877,NP,,null,,
NAILORÉ,"Tinkune - 34, काठमाडौँ 44600",+9779708240714,NP,facebook.com,null,,
Yang beauty care,"Galkopakha Marg, काठमाडौँ 44600",+9779849209569,NP,,null,,
"Beauty Shine Makeup Studio with Spa Gurjudhara, Kathmandu","Gurjudhara, Chandragiri, Kathmandu 44600",,NP,facebook.com,null,,
Tilu Hair & Beauty Salon,"Sarkari Dhara, Mhepi Marg, काठमाडौँ 44600",+9779803224742,NP,https://bit.ly,null,,
फील युनिसेक्स ब्यूटी सैलुन र प्रशिक्षण केन्द्र,"पुरानो बानेश्वर-३४, देवकोटा सडक, 44600",+9779847533414,NP,,null,,
Femina FLAUNT Studio Salon - Kathmandu,"Femina Flaunt Studio Salon, Nagpokhari Marg, काठमाडौँ 44600",+9779702640260,NP,https://feminaflaunt.com,feminaflauntsalon@gmail.com,+91207998360000,
FEELING'S BEAUTY & TRAINING CENTRE,काठमाडौँ 44600,+9779843477274,NP,,null,,
Radiant Unisex Salon & Training Center,काठमाडौँ 44600,+9779851410393,NP,https://radiantunisexsalon.com,info@radiantunisexsalon.com,+97715911829,+9779866103257
Sunshine unisex Beauty Parlor,"Gwarko Imadol Mahalaxmi, 01 Milan Tole Rd, काठमाडौँ 44600",,NP,https://creativitymakeupunisexparlor.com,null,,
Kaluwa Unisex Parlour,काठमाडौँ 44617,+9779812127568,NP,,null,,
Anita beauty salon and makeup studio,"3rd floor, shankhamul, near patan, sano pool, investment bank, building, काठमाडौँ 44600",+9779822783805,NP,https://anitabeautysalon.com,null,,
Monika Unisex Salon & Academy,काठमाडौँ 44600,+9779857075295,NP,,null,,
Lavish Beauty Studio and Training Center,"Baneshwor behind BICC hall, 44600",+9779851223829,NP,,null,,
nails academy,"Near by koteshwor sky bridge, काठमाडौँ 44600",+9779802351301,NP,,null,,
Ananeke Beauty Salon,"Tusal Marg, काठमाडौँ 44600",+97714582806,NP,,null,,
Shantaj Beauty Salon & Training Center,"भक्ति थापा सडक, काठमाडौँ 44600",+9779860954232,NP,,null,,
Phoenix Unisex Salon - Best Salon In Kathmandu,काठमाडौँ 44600,+9779868812135,NP,facebook.com,null,,
Emacity _Nepal,"Sano Kharibot, काठमाडौँ 44600",+9779860535460,NP,,null,,
Habibs Hair & Beauty Salon,"2nd Floor Kasthamandap Bazaar, Teendhara Marg, काठमाडौँ 44605",+97714169061,NP,https://habibssalon.com,null,,
Reflections Beauty Salon,काठमाडौँ 44600,+9779851353700,NP,,null,,
Bliss by Sakil Kunwar Durbar Marg,"Above MODENA & SEIKO shop, 2 Darbar Marg, काठमाडौँ 1",+97715339065,NP,,null,,
असाइलम हेयर सलुन,"A-One Business Complex, ठमेल मार्ग, काठमाडौँ 44600",+97714531450,NP,https://asylumhairsalon.com,null,,
Eros Cuts,"P894+37F, काठमाडौँ 44600",+9779809777982,NP,https://eroscuts.com,null,,
Beauty Parlor,"P873+4JC, Swayambhu Marg, काठमाडौँ 44600",+9779703580657,NP,,null,,
Breeze Hair & Beauty Salon,"Opposite Boudhha Stupa, काठमाडौँ 44600",+9779818074615,NP,https://bit.ly,null,,
Kesh The Unisex Salon,"Sinamangal Rd, काठमाडौँ 44600",+9779851348288,NP,https://keshtheunisexsalon.com.np,null,+9779851348288,+9779851348288
Nirjara Beauty Salon & Academy Chabahil,"Centra Complex, काठमाडौँ 44600",+9779801138668,NP,facebook.com,null,,
The Beauty Bar,"सम मार्ग, काठमाडौँ 44600",+97714522551,NP,,null,,
Jasmine Unisex Salon & Academy,"Tinchuli Chowk, काठमाडौँ 44600",+9779851321376,NP,,null,,
Shahinoor Unisex salon Newplaza,"P82F+JGJ, New Plaza Sadak, काठमाडौँ 44600",+9779842748877,NP,https://shahinoorunisexsalon.com,null,+9779842748877,+9779842748877
Dolly's Unisex Beauty Salon,"बैंक ओफ काठमाडौँ को नजिकै, तीनधारा मार्ग, काठमाडौँ 44600",+9779801024106,NP,https://dollyscreation.com,mail@dollyscreation.com,+9779801024106,+97714445082
GlowToGlow The Beauty Studio - Best Bridal Makeup in Kathmandu Nepal,"Pipalbot, काठमाडौँ 44600",+97714526142,NP,,null,,
J and J Beauty Academy,"Natyashwori Marg, काठमाडौँ 44600",+9779860134633,NP,https://jjbeautyhub.com,jjbeautyhub@gmail.com,+9779860103416,+9779860134633
Rajesh Unisex Salon Hair & Skin Care,"Chowk Chagal Marg, काठमाडौँ 44620",+9779812737130,NP,facebook.com,null,,
बाल-मा भएको पेटी,"Ac Complex, 3rd Floor,AC complex, चाबहिल मार्ग, काठमाडौँ 44602",+97714561383,NP,,null,,
J&J Unisex Salon,"P8P7+7QJ, टोखा 44600",+9779808891676,NP,,null,,
Goodwill Spa & Beauty Parlour,"ठमेल मार्ग, काठमाडौँ 44600",+9779843048345,NP,,null,,
Reflection Unisex,"Kathmandu Mall 3rd floor shop no. 301 D, सुन्धारा मार्ग, काठमाडौँ 44600",+9779816325424,NP,https://reflectionunisex.com,reflect@reflectionunisex.com,+NP20+9779816325424,+NP6600236234231005190
अन्नपूर्ण सैलून,काठमाडौँ 44600,+9779818981221,NP,https://annapurnasalon.com.np,annapurnasalon890@gmail.com,+9779818981221,+9779841243778
Laxmi Beauty Studio & Unisex Salon,"4th Floor, Shop No: 411, काठमाण्डौ मल, सुन्धारा मार्ग, काठमाडौँ 44600",+9779851096622,NP,,null,,
Tulip Salon,"People's Plaza, 5th Floor खेचापुखु सडक, काठमाडौँ 44600",,NP,facebook.com,null,,
Julie's Unisex Salon Durbar marg,"MOTi Mahal Building 1st floor Opposite side of Rastriya Banijya Bank, काठमाडौँ 44600",+9779802318104,NP,,null,,
Tranquility Spa - Hotel Shankar,काठमाडौँ 44600,+9779801021265,NP,https://tranquilityspa.com.np,info@tranquilityspa.com.np,+9779802365118,
neeldavid,"Civil Mall, 1st floor, काठमाडौँ 44600",+9779851012061,NP,,null,,
Aroma Makeup And Beauty Studio,"ATMA GYAN, काठमाडौँ 44600",+9779743954005,NP,facebook.com,null,,
Galz Beauty Parlour,"P836+868, नयाँ सडक, काठमाडौँ 44600",,NP,,null,,
Diamond Beauty Hub,"City Square, काठमाडौँ 44600",+9779851206692,NP,,null,,
Lashes Makeup Studio,"3rd Floor, GR Complex, काठमाडौँ 44600",+97714001504,NP,https://lashesmakeupstudio.com,lashes@gmail.com,+97714001504,
Beyond Beauty Salon Academy,"P8RM+W87, काठमाडौँ 44600",+9779862749360,NP,,null,,
Archanique Unisex Salon,"Pipalbot, काठमाडौँ 44600",+9779810125652,NP,,null,,
Posh Beauty Studio,काठमाडौँ 44600,+9779851023825,NP,,null,,
Creamy Unisex Beauty Salon,"Gangahiti Marg, काठमाडौँ 44600",+9779805044215,NP,,null,,
o2 Nails & Beauty Studio,"Chandra Vinayak Marg, काठमाडौँ 44600",+9779810020638,NP,,null,,
Tranquility Spa-Thamel,"J P Road, काठमाडौँ 44600",+97715318396,NP,https://tranquilityspa.com.np,info@tranquilityspa.com.np,+9779802365118,
REETAZ REDEFINED BEAUTY PARLOR,"KL Tower, Chabahil, Shanti Goreto, काठमाडौँ 44600",+9779843709050,NP,,null,,
Midas Touch - Home Salon Service,"Mid, Prachin Galli, काठमाडौँ 44600",+9779808122854,NP,,null,,
Lotus Skin And Hair Care Beauty Parlour,"P88V+HX2, काठमाडौँ 44600",+9779841216498,NP,,null,,
Zenny's Beauty Salon And Training Center,"Balaju Sohrakhutte Sadak, काठमाडौँ 44600",+9779863494919,NP,,null,,
